"","site #","Region","Zoogeogr.Region","Country","Tidal Regime","Location","Longitude","Latitude","Phylum","class/orded","Family","Genus","Species","Habitat","Fresh mangrove leaves feeder","Leaf litter and propagule feeder","Microalgae and bacteria feeder","Detritivore","Suspension feeder","Macroalgal feeder","Predator","Omnivore","Scavenger","Lignivore","Burrowing","Surface digging","Woodboring","Encrustering","Leaf storing","Sruface bioturbating","Fragmentating","Free leaving"
"1",1,"S-America-W","East-Pacific","Colombia","Macro","Báhia Málaga",-77.31,3.97,"Crustacea","Decapoda","Grapsidae","Goniopsis","Goniopsis pulchra","Inter_F",NA,1,NA,NA,NA,NA,1,NA,NA,NA,NA,NA,NA,NA,NA,NA,NA,1
"2",1,"S-America-W","East-Pacific","Colombia","Macro","Báhia Málaga",-77.31,3.97,"Crustacea","Decapoda","Grapsidae","Pachygrapsus","Pachygrapsus transversus","Inter_F",NA,NA,NA,NA,NA,NA,NA,1,NA,NA,NA,NA,NA,NA,NA,NA,NA,1
"3",1,"S-America-W","East-Pacific","Colombia","Macro","Báhia Málaga",-77.31,3.97,"Crustacea","Decapoda","Sesarmidae","Aratus","Aratus pacificus","Inter_F",1,NA,NA,NA,NA,NA,NA,NA,NA,NA,NA,NA,NA,NA,NA,NA,NA,1
"4",1,"S-America-W","East-Pacific","Colombia","Macro","Báhia Málaga",-77.31,3.97,"Crustacea","Decapoda","Sesarmidae","Armases","Armases occidentale","Inter_F",NA,1,NA,1,NA,NA,NA,NA,NA,NA,NA,NA,NA,NA,NA,NA,1,1
"5",1,"S-America-W","East-Pacific","Colombia","Macro","Báhia Málaga",-77.31,3.97,"Crustacea","Decapoda","Sesarmidae","Armases","Armases angustum","Inter_F",NA,1,NA,1,NA,NA,NA,NA,NA,NA,NA,NA,NA,NA,NA,NA,1,1
"6",1,"S-America-W","East-Pacific","Colombia","Macro","Báhia Málaga",-77.31,3.97,"Crustacea","Decapoda","Sesarmidae","Sesarma","Sesarma aequatoriale","Inter_F",NA,1,NA,1,NA,NA,NA,NA,NA,NA,NA,NA,NA,NA,NA,NA,1,1
"7",1,"S-America-W","East-Pacific","Colombia","Macro","Báhia Málaga",-77.31,3.97,"Crustacea","Decapoda","Gecarcinidae","Cardisoma","Cardisoma crassum","Supra",NA,1,NA,NA,NA,NA,NA,NA,NA,NA,1,NA,NA,NA,NA,NA,1,0
"8",1,"S-America-W","East-Pacific","Colombia","Macro","Báhia Málaga",-77.31,3.97,"Crustacea","Decapoda","Ocypodidae","Uca","Uca heteropleura","Inter_M",NA,NA,1,NA,NA,NA,NA,NA,NA,NA,1,NA,NA,NA,NA,1,NA,0
"9",1,"S-America-W","East-Pacific","Colombia","Macro","Báhia Málaga",-77.31,3.97,"Crustacea","Decapoda","Ocypodidae","Leptuca","Leptuca festae","Inter_M",NA,NA,1,NA,NA,NA,NA,NA,NA,NA,1,NA,NA,NA,NA,1,NA,0
"10",1,"S-America-W","East-Pacific","Colombia","Macro","Báhia Málaga",-77.31,3.97,"Crustacea","Decapoda","Ocypodidae","Leptuca","Leptuca dorotheae","Inter_M",NA,NA,1,NA,NA,NA,NA,NA,NA,NA,1,NA,NA,NA,NA,1,NA,0
"11",1,"S-America-W","East-Pacific","Colombia","Macro","Báhia Málaga",-77.31,3.97,"Crustacea","Decapoda","Ocypodidae","Leptuca","Leptuca beebei","Inter_M",NA,NA,1,NA,NA,NA,NA,NA,NA,NA,1,NA,NA,NA,NA,1,NA,0
"12",1,"S-America-W","East-Pacific","Colombia","Macro","Báhia Málaga",-77.31,3.97,"Crustacea","Decapoda","Ocypodidae","Uca","Uca stylifera","Inter_M",NA,NA,1,NA,NA,NA,NA,NA,NA,NA,1,NA,NA,NA,NA,1,NA,0
"13",1,"S-America-W","East-Pacific","Colombia","Macro","Báhia Málaga",-77.31,3.97,"Crustacea","Decapoda","Ocypodidae","Minuca","Minuca vocator","Inter_M",NA,NA,1,NA,NA,NA,NA,NA,NA,NA,1,NA,NA,NA,NA,1,NA,0
"14",1,"S-America-W","East-Pacific","Colombia","Macro","Báhia Málaga",-77.31,3.97,"Crustacea","Decapoda","Ocypodidae","Ucides","Ucides occidentalis","Inter_F",NA,1,NA,1,NA,NA,NA,NA,NA,NA,1,NA,NA,NA,NA,NA,1,0
"15",1,"S-America-W","East-Pacific","Colombia","Macro","Báhia Málaga",-77.31,3.97,"Crustacea","Decapoda","Panopeidae","Panopeus","Panopeus sp. 1","Inter_F",NA,NA,NA,NA,NA,NA,1,NA,NA,NA,1,NA,NA,NA,NA,NA,NA,0
"16",1,"S-America-W","East-Pacific","Colombia","Macro","Báhia Málaga",-77.31,3.97,"Crustacea","Decapoda","Panopeidae","Eurytium","Eurytium tristani","Inter_F",NA,NA,NA,NA,NA,NA,1,NA,NA,NA,1,NA,NA,NA,NA,NA,NA,0
"17",1,"S-America-W","East-Pacific","Colombia","Macro","Báhia Málaga",-77.31,3.97,"Mollusca","Gastropoda","Ellobiidae","Ellobium","Ellobium stagnale","Inter_F",NA,NA,1,NA,NA,NA,NA,NA,NA,NA,NA,NA,NA,NA,NA,NA,NA,1
"18",1,"S-America-W","East-Pacific","Colombia","Macro","Báhia Málaga",-77.31,3.97,"Mollusca","Gastropoda","Neritidae","Vitta","Vitta luteofasciata","Inter_F",NA,NA,1,NA,NA,NA,NA,NA,NA,NA,NA,NA,NA,NA,NA,NA,NA,1
"19",1,"S-America-W","East-Pacific","Colombia","Macro","Báhia Málaga",-77.31,3.97,"Crustacea","Decapoda","Alpheidae","Alpheus","Alpheus colombiensis","Inter_F",NA,NA,NA,1,NA,NA,NA,NA,NA,NA,1,NA,NA,NA,NA,NA,NA,0
"20",1,"S-America-W","East-Pacific","Colombia","Macro","Báhia Málaga",-77.31,3.97,"Crustacea","Decapoda","Alpheidae","Synalpheus","Synalpheus sp. 1","Inter_F",NA,NA,NA,1,NA,NA,NA,NA,NA,NA,1,NA,NA,NA,NA,NA,NA,0
"21",1,"S-America-W","East-Pacific","Colombia","Macro","Báhia Málaga",-77.31,3.97,"Crustacea","Decapoda","Diogenidae","Clibanarius","Clibanarius lineatus","Inter_M",NA,NA,NA,NA,NA,NA,NA,1,NA,NA,NA,NA,NA,NA,NA,NA,NA,1
"22",1,"S-America-W","East-Pacific","Colombia","Macro","Báhia Málaga",-77.31,3.97,"Crustacea","Decapoda","Portunidae","Callinectes","Callinectes toxotes","Inter_M",NA,NA,NA,NA,NA,NA,1,NA,NA,NA,NA,NA,NA,NA,NA,NA,NA,1
"23",1,"S-America-W","East-Pacific","Colombia","Macro","Báhia Málaga",-77.31,3.97,"Crustacea","Decapoda","Porcellanidae","Petrolisthes","Petrolisthes armatus","Inter_F",NA,NA,NA,NA,1,NA,NA,NA,NA,NA,NA,NA,NA,NA,NA,NA,NA,1
"24",1,"S-America-W","East-Pacific","Colombia","Macro","Báhia Málaga",-77.31,3.97,"Crustacea","Stomatopoda","Squillidae","Squilla","Squilla sp. 1","Inter_M",NA,NA,NA,NA,NA,NA,1,NA,NA,NA,1,NA,NA,NA,NA,NA,NA,0
"25",1,"S-America-W","East-Pacific","Colombia","Macro","Báhia Málaga",-77.31,3.97,"Mollusca","Gastropoda","Littorinidae","Littoraria","Littoraria aberrans","Inter_F",NA,NA,1,NA,NA,NA,NA,NA,NA,NA,NA,NA,NA,NA,NA,NA,NA,1
"26",1,"S-America-W","East-Pacific","Colombia","Macro","Báhia Málaga",-77.31,3.97,"Mollusca","Gastropoda","Littorinidae","Littoraria","Littoraria zebra","Inter_F",NA,NA,1,NA,NA,NA,NA,NA,NA,NA,NA,NA,NA,NA,NA,NA,NA,1
"27",1,"S-America-W","East-Pacific","Colombia","Macro","Báhia Málaga",-77.31,3.97,"Mollusca","Gastropoda","Littorinidae","Littoraria","Littoraria variegata","Inter_F",NA,NA,1,NA,NA,NA,NA,NA,NA,NA,NA,NA,NA,NA,NA,NA,NA,1
"28",1,"S-America-W","East-Pacific","Colombia","Macro","Báhia Málaga",-77.31,3.97,"Mollusca","Gastropoda","Littorinidae","Littoraria","Littoraria varia","Inter_F",NA,NA,1,NA,NA,NA,NA,NA,NA,NA,NA,NA,NA,NA,NA,NA,NA,1
"29",1,"S-America-W","East-Pacific","Colombia","Macro","Báhia Málaga",-77.31,3.97,"Mollusca","Bivalvia","Cyrenidae","Polymesoda","Polymesoda inflata","Inter_M",NA,NA,NA,NA,1,NA,NA,NA,NA,NA,NA,1,NA,NA,NA,NA,NA,0
"30",1,"S-America-W","East-Pacific","Colombia","Macro","Báhia Málaga",-77.31,3.97,"Mollusca","Bivalvia","Cyrenidae","Polymesoda","Polymesoda meridionalis","Inter_M",NA,NA,NA,NA,1,NA,NA,NA,NA,NA,NA,1,NA,NA,NA,NA,NA,0
"31",1,"S-America-W","East-Pacific","Colombia","Macro","Báhia Málaga",-77.31,3.97,"Crustacea","Decapoda","Palaemonidae","Palaemon","Palaemon hancocki","Inter_M",NA,NA,NA,1,NA,NA,NA,NA,NA,NA,NA,NA,NA,NA,NA,NA,NA,1
"32",1,"S-America-W","East-Pacific","Colombia","Macro","Báhia Málaga",-77.31,3.97,"Mollusca","Bivalvia","Arcidae","Anadara","Anadara similis","Inter_F",NA,NA,NA,NA,1,NA,NA,NA,NA,NA,NA,1,NA,NA,NA,NA,NA,0
"33",1,"S-America-W","East-Pacific","Colombia","Macro","Báhia Málaga",-77.31,3.97,"Mollusca","Bivalvia","Arcidae","Anadara","Anadara tuberculosa","Inter_F",NA,NA,NA,NA,1,NA,NA,NA,NA,NA,NA,1,NA,NA,NA,NA,NA,0
"34",1,"S-America-W","East-Pacific","Colombia","Macro","Báhia Málaga",-77.31,3.97,"Mollusca","Gastropoda","Columbellidae","Anachis","Anachis sp. 1","Inter_F",NA,NA,NA,1,NA,NA,NA,NA,NA,NA,NA,NA,NA,NA,NA,NA,NA,1
"35",1,"S-America-W","East-Pacific","Colombia","Macro","Báhia Málaga",-77.31,3.97,"Crustacea","Decapoda","Alpheidae","Alpheus","Alpheus mazatlanicus","Inter_F",NA,NA,NA,1,NA,NA,NA,NA,NA,NA,1,NA,NA,NA,NA,NA,NA,0
"36",1,"S-America-W","East-Pacific","Colombia","Macro","Báhia Málaga",-77.31,3.97,"Mollusca","Gastropoda","Ellobiidae","Melampus","Melampus sp. 1","Inter_M",NA,1,NA,1,NA,NA,NA,NA,NA,NA,NA,NA,NA,NA,NA,NA,NA,1
"37",1,"S-America-W","East-Pacific","Colombia","Macro","Báhia Málaga",-77.31,3.97,"Mollusca","Bivalvia","Mytilidae","Mytella","Mytella guyanensis","Inter_F",NA,NA,NA,NA,1,NA,NA,NA,NA,NA,NA,1,NA,NA,NA,NA,NA,0
"38",1,"S-America-W","East-Pacific","Colombia","Macro","Báhia Málaga",-77.31,3.97,"Mollusca","Bivalvia","Veneridae","Leukoma","Leukoma asperrima","Inter_F",NA,NA,NA,NA,1,NA,NA,NA,NA,NA,NA,1,NA,NA,NA,NA,NA,0
"39",1,"S-America-W","East-Pacific","Colombia","Macro","Báhia Málaga",-77.31,3.97,"Mollusca","Bivalvia","Veneridae","Leukoma","Leukoma grata","Inter_F",NA,NA,NA,NA,1,NA,NA,NA,NA,NA,NA,1,NA,NA,NA,NA,NA,0
"40",1,"S-America-W","East-Pacific","Colombia","Macro","Báhia Málaga",-77.31,3.97,"Crustacea","Sessilia","Chthamalidae","Chthamalus","Chthamalus panamensis","Inter_F",NA,NA,NA,NA,1,NA,NA,NA,NA,NA,NA,NA,NA,1,NA,NA,NA,0
"41",1,"S-America-W","East-Pacific","Colombia","Macro","Báhia Málaga",-77.31,3.97,"Mollusca","Bivalvia","Ostreidae","Crassostrea","Crassostrea corteziensis","Inter_F",NA,NA,NA,NA,1,NA,NA,NA,NA,NA,NA,NA,NA,1,NA,NA,NA,0
"42",1,"S-America-W","East-Pacific","Colombia","Macro","Báhia Málaga",-77.31,3.97,"Mollusca","Gastropoda","Muricidae","Thaisella","Thaisella kiosquiformis","Inter_F",NA,NA,NA,NA,NA,NA,1,NA,NA,NA,NA,NA,NA,NA,NA,NA,NA,1
"43",1,"S-America-W","East-Pacific","Colombia","Macro","Báhia Málaga",-77.31,3.97,"Mollusca","Gastropoda","Potamididae","Cerithideopsis","Cerithideopsis californica","Inter_M",NA,NA,1,NA,NA,NA,NA,NA,NA,NA,NA,NA,NA,NA,NA,NA,NA,1
"44",1,"S-America-W","East-Pacific","Colombia","Macro","Báhia Málaga",-77.31,3.97,"Mollusca","Gastropoda","Potamididae","Cerithideopsis","Cerithideopsis pulchra","Inter_M",NA,NA,1,NA,NA,NA,NA,NA,NA,NA,NA,NA,NA,NA,NA,NA,NA,1
"45",1,"S-America-W","East-Pacific","Colombia","Macro","Báhia Málaga",-77.31,3.97,"Crustacea","Decapoda","Portunidae","Cronius","Cronius ruber","Inter_M",NA,NA,NA,NA,NA,NA,1,NA,NA,NA,NA,NA,NA,NA,NA,NA,NA,1
"46",1,"S-America-W","East-Pacific","Colombia","Macro","Báhia Málaga",-77.31,3.97,"Mollusca","Bivalvia","Ostreidae","Saccostrea","Saccostrea palmula","Inter_F",NA,NA,NA,NA,1,NA,NA,NA,NA,NA,NA,NA,NA,1,NA,NA,NA,0
"47",1,"S-America-W","East-Pacific","Colombia","Macro","Báhia Málaga",-77.31,3.97,"Mollusca","Bivalvia","Ostreidae","Striostrea","Striostrea prismatica","Inter_F",NA,NA,NA,NA,1,NA,NA,NA,NA,NA,NA,NA,NA,1,NA,NA,NA,0
"48",1,"S-America-W","East-Pacific","Colombia","Macro","Báhia Málaga",-77.31,3.97,"Mollusca","Bivalvia","Teredinidae","Bankia","Bankia zeteki","Inter_F",NA,NA,NA,NA,NA,NA,NA,NA,NA,1,NA,NA,1,NA,NA,NA,NA,0
"49",1,"S-America-W","East-Pacific","Colombia","Macro","Báhia Málaga",-77.31,3.97,"Mollusca","Bivalvia","Teredinidae","Bankia","Bankia destructa","Inter_F",NA,NA,NA,NA,NA,NA,NA,NA,NA,1,NA,NA,1,NA,NA,NA,NA,0
"50",1,"S-America-W","East-Pacific","Colombia","Macro","Báhia Málaga",-77.31,3.97,"Mollusca","Bivalvia","Teredinidae","Teredo","Teredo furcifera","Inter_F",NA,NA,NA,NA,NA,NA,NA,NA,NA,1,NA,NA,1,NA,NA,NA,NA,0
"51",1,"S-America-W","East-Pacific","Colombia","Macro","Báhia Málaga",-77.31,3.97,"Mollusca","Bivalvia","Teredinidae","Teredo","Teredo bartschi","Inter_F",NA,NA,NA,NA,NA,NA,NA,NA,NA,1,NA,NA,1,NA,NA,NA,NA,0
"52",1,"S-America-W","East-Pacific","Colombia","Macro","Báhia Málaga",-77.31,3.97,"Mollusca","Bivalvia","Teredinidae","Nausitora","Nausitora excolpa","Inter_F",NA,NA,NA,NA,NA,NA,NA,NA,NA,1,NA,NA,1,NA,NA,NA,NA,0
"53",1,"S-America-W","East-Pacific","Colombia","Macro","Báhia Málaga",-77.31,3.97,"Mollusca","Bivalvia","Teredinidae","Nausitora","Nausitora dryas","Inter_F",NA,NA,NA,NA,NA,NA,NA,NA,NA,1,NA,NA,1,NA,NA,NA,NA,0
"54",1,"S-America-W","East-Pacific","Colombia","Macro","Báhia Málaga",-77.31,3.97,"Mollusca","Bivalvia","Pholadidae ","Barnea","Barnea subtruncata","Inter_F",NA,NA,NA,NA,NA,NA,NA,NA,NA,1,NA,NA,1,NA,NA,NA,NA,0
"55",1,"S-America-W","East-Pacific","Colombia","Macro","Báhia Málaga",-77.31,3.97,"Mollusca","Bivalvia","Pholadidae ","Martesia","Martesia striata","Inter_F",NA,NA,NA,NA,NA,NA,NA,NA,NA,1,NA,NA,1,NA,NA,NA,NA,0
"56",2,"S-America-E","West Atlantic","Brazil","Macro","Península Ajuruteua",-46.6864,-0.88642,"Crustacea","Decapoda","Callichiridae","Lepidophthalmus","Lepidophthalmus siriboia","Inter_M",NA,NA,NA,NA,1,NA,NA,NA,NA,NA,1,NA,NA,NA,NA,NA,NA,0
"57",2,"S-America-E","West Atlantic","Brazil","Macro","Península Ajuruteua",-46.6864,-0.88642,"Crustacea","Decapoda","Grapsidae","Goniopsis","Goniopsis cruentata","Inter_F",NA,1,NA,NA,NA,NA,1,NA,NA,NA,NA,NA,NA,NA,NA,NA,NA,1
"58",2,"S-America-E","West Atlantic","Brazil","Macro","Península Ajuruteua",-46.6864,-0.88642,"Crustacea","Decapoda","Grapsidae","Pachygrapsus","Pachygrapsus gracilis","Inter_F",NA,NA,NA,1,NA,NA,NA,NA,NA,NA,NA,NA,NA,NA,NA,NA,NA,1
"59",2,"S-America-E","West Atlantic","Brazil","Macro","Península Ajuruteua",-46.6864,-0.88642,"Crustacea","Decapoda","Sesarmidae","Aratus","Aratus pisonii","Inter_F",1,NA,NA,NA,NA,NA,NA,NA,NA,NA,NA,NA,NA,NA,NA,NA,NA,1
"60",2,"S-America-E","West Atlantic","Brazil","Macro","Península Ajuruteua",-46.6864,-0.88642,"Crustacea","Decapoda","Sesarmidae","Armases","Armases angustipes","Inter_F",NA,1,NA,1,NA,NA,NA,NA,NA,NA,NA,NA,NA,NA,NA,NA,1,1
"61",2,"S-America-E","West Atlantic","Brazil","Macro","Península Ajuruteua",-46.6864,-0.88642,"Crustacea","Decapoda","Sesarmidae","Armases","Armases benedicti","Inter_F",NA,1,NA,1,NA,NA,NA,NA,NA,NA,NA,NA,NA,NA,NA,NA,1,1
"62",2,"S-America-E","West Atlantic","Brazil","Macro","Península Ajuruteua",-46.6864,-0.88642,"Crustacea","Decapoda","Sesarmidae","Armases","Armases rubripes","Inter_F",NA,NA,NA,NA,NA,1,NA,NA,NA,NA,NA,NA,NA,NA,NA,NA,NA,1
"63",2,"S-America-E","West Atlantic","Brazil","Macro","Península Ajuruteua",-46.6864,-0.88642,"Crustacea","Decapoda","Sesarmidae","Sesarma","Sesarma curacaoense","Inter_F",NA,1,NA,1,NA,NA,NA,NA,NA,NA,1,NA,NA,NA,NA,NA,1,0
"64",2,"S-America-E","West Atlantic","Brazil","Macro","Península Ajuruteua",-46.6864,-0.88642,"Crustacea","Decapoda","Sesarmidae","Sesarma","Sesarma rectum","Inter_F",NA,1,NA,1,NA,NA,NA,NA,NA,NA,1,NA,NA,NA,NA,NA,1,0
"65",2,"S-America-E","West Atlantic","Brazil","Macro","Península Ajuruteua",-46.6864,-0.88642,"Crustacea","Decapoda","Gecarcinidae","Cardisoma","Cardisoma guanhumi","Supra",NA,1,NA,NA,NA,NA,NA,NA,NA,NA,1,NA,NA,NA,NA,NA,1,0
"66",2,"S-America-E","West Atlantic","Brazil","Macro","Península Ajuruteua",-46.6864,-0.88642,"Crustacea","Decapoda","Ocypodidae","Leptuca","Leptuca cumulanta","Inter_F",NA,NA,1,NA,NA,NA,NA,NA,NA,NA,1,NA,NA,NA,NA,1,NA,0
"67",2,"S-America-E","West Atlantic","Brazil","Macro","Península Ajuruteua",-46.6864,-0.88642,"Crustacea","Decapoda","Ocypodidae","Uca","Uca maracoani","Inter_M",NA,NA,1,NA,NA,NA,NA,NA,NA,NA,1,NA,NA,NA,NA,1,NA,0
"68",2,"S-America-E","West Atlantic","Brazil","Macro","Península Ajuruteua",-46.6864,-0.88642,"Crustacea","Decapoda","Ocypodidae","Minuca","Minuca mordax","Inter_F",NA,NA,1,NA,NA,NA,NA,NA,NA,NA,1,NA,NA,NA,NA,1,NA,0
"69",2,"S-America-E","West Atlantic","Brazil","Macro","Península Ajuruteua",-46.6864,-0.88642,"Crustacea","Decapoda","Ocypodidae","Minuca","Minuca rapax","Inter_F",NA,NA,1,NA,NA,NA,NA,NA,NA,NA,1,NA,NA,NA,NA,1,NA,0
"70",2,"S-America-E","West Atlantic","Brazil","Macro","Península Ajuruteua",-46.6864,-0.88642,"Crustacea","Decapoda","Ocypodidae","Leptuca","Leptuca thayeri","Inter_F",NA,NA,1,NA,NA,NA,NA,NA,NA,NA,1,NA,NA,NA,NA,1,NA,0
"71",2,"S-America-E","West Atlantic","Brazil","Macro","Península Ajuruteua",-46.6864,-0.88642,"Crustacea","Decapoda","Ocypodidae","Minuca","Minuca vocator","Inter_F",NA,NA,1,NA,NA,NA,NA,NA,NA,NA,1,NA,NA,NA,NA,1,NA,0
"72",2,"S-America-E","West Atlantic","Brazil","Macro","Península Ajuruteua",-46.6864,-0.88642,"Crustacea","Decapoda","Ocypodidae","Ucides","Ucides cordatus","Inter_F",NA,1,NA,1,NA,NA,NA,NA,NA,NA,1,NA,NA,NA,NA,NA,1,0
"73",2,"S-America-E","West Atlantic","Brazil","Macro","Península Ajuruteua",-46.6864,-0.88642,"Crustacea","Decapoda","Menippidae","Menippe","Menippe nodifrons","Inter_F",NA,NA,NA,NA,NA,NA,1,NA,NA,NA,NA,NA,NA,NA,NA,NA,NA,1
"74",2,"S-America-E","West Atlantic","Brazil","Macro","Península Ajuruteua",-46.6864,-0.88642,"Crustacea","Decapoda","Panopeidae","Panopeus","Panopeus lacustris","Inter_F",NA,NA,NA,NA,NA,NA,1,NA,NA,NA,NA,NA,NA,NA,NA,NA,NA,1
"75",2,"S-America-E","West Atlantic","Brazil","Macro","Península Ajuruteua",-46.6864,-0.88642,"Crustacea","Decapoda","Panopeidae","Eurytium","Eurytium limosum","Inter_F",NA,NA,NA,NA,NA,NA,1,NA,NA,NA,1,NA,NA,NA,NA,NA,NA,0
"76",2,"S-America-E","West Atlantic","Brazil","Macro","Península Ajuruteua",-46.6864,-0.88642,"Mollusca","Gastropoda","Ellobiidae","Ellobium","Ellobium dominicense","Inter_F",NA,NA,1,NA,NA,NA,NA,NA,NA,NA,NA,NA,NA,NA,NA,NA,NA,1
"77",2,"S-America-E","West Atlantic","Brazil","Macro","Península Ajuruteua",-46.6864,-0.88642,"Crustacea","Decapoda","Alpheidae","Alpheus","Alpheus sp. 1","Inter_F",NA,NA,NA,1,NA,NA,NA,NA,NA,NA,1,NA,NA,NA,NA,NA,NA,0
"78",2,"S-America-E","West Atlantic","Brazil","Macro","Península Ajuruteua",-46.6864,-0.88642,"Crustacea","Decapoda","Diogenidae","Clibanarius","Clibanarius vittatus","Inter_F",NA,NA,NA,NA,NA,NA,NA,1,NA,NA,NA,NA,NA,NA,NA,NA,NA,1
"79",2,"S-America-E","West Atlantic","Brazil","Macro","Península Ajuruteua",-46.6864,-0.88642,"Crustacea","Decapoda","Portunidae","Callinectes","Callinectes bocourti","Inter_F",NA,NA,NA,NA,NA,NA,1,NA,NA,NA,NA,NA,NA,NA,NA,NA,NA,1
"80",2,"S-America-E","West Atlantic","Brazil","Macro","Península Ajuruteua",-46.6864,-0.88642,"Crustacea","Decapoda","Portunidae","Callinectes","Callinectes exasperatus","Inter_F",NA,NA,NA,NA,NA,NA,1,NA,NA,NA,NA,NA,NA,NA,NA,NA,NA,1
"81",2,"S-America-E","West Atlantic","Brazil","Macro","Península Ajuruteua",-46.6864,-0.88642,"Crustacea","Decapoda","Porcellanidae","Petrolisthes","Petrolisthes armatus","Inter_F",NA,NA,NA,NA,1,NA,NA,NA,NA,NA,NA,NA,NA,NA,NA,NA,NA,1
"82",2,"S-America-E","West Atlantic","Brazil","Macro","Península Ajuruteua",-46.6864,-0.88642,"Crustacea","Stomatopoda","Squillidae","Squilla","Squilla sp. 1","Inter_F",NA,NA,NA,NA,NA,NA,1,NA,NA,NA,1,NA,NA,NA,NA,NA,NA,0
"83",2,"S-America-E","West Atlantic","Brazil","Macro","Península Ajuruteua",-46.6864,-0.88642,"Mollusca","Gastropoda","Littorinidae","Littoraria","Littoraria angulifera","Inter_F",NA,NA,1,NA,NA,NA,NA,NA,NA,NA,NA,NA,NA,NA,NA,NA,NA,1
"84",2,"S-America-E","West Atlantic","Brazil","Macro","Península Ajuruteua",-46.6864,-0.88642,"Mollusca","Gastropoda","Ellobiidae","Melampus","Melampus coffea","Inter_F",NA,1,NA,1,NA,NA,NA,NA,NA,NA,NA,NA,NA,NA,NA,NA,NA,1
"85",2,"S-America-E","West Atlantic","Brazil","Macro","Península Ajuruteua",-46.6864,-0.88642,"Mollusca","Bivalvia","Mytilidae","Mytella","Mytella charruana","Inter_F",NA,NA,NA,NA,1,NA,NA,NA,NA,NA,NA,1,NA,NA,NA,NA,NA,0
"86",2,"S-America-E","West Atlantic","Brazil","Macro","Península Ajuruteua",-46.6864,-0.88642,"Mollusca","Bivalvia","Mytilidae","Mytella","Mytella guyanensis","Inter_F",NA,NA,NA,NA,1,NA,NA,NA,NA,NA,NA,1,NA,NA,NA,NA,NA,0
"87",2,"S-America-E","West Atlantic","Brazil","Macro","Península Ajuruteua",-46.6864,-0.88642,"Mollusca","Gastropoda","Muricidae","Claremontiella","Claremontiella nodulosa","Inter_F",NA,NA,NA,NA,NA,NA,1,NA,NA,NA,NA,NA,NA,NA,NA,NA,NA,1
"88",2,"S-America-E","West Atlantic","Brazil","Macro","Península Ajuruteua",-46.6864,-0.88642,"Crustacea","Sessilia","Balanidae","Fistulobalanus","Fistulobalanus citerosum","Inter_F",NA,NA,NA,NA,1,NA,NA,NA,NA,NA,NA,NA,NA,1,NA,NA,NA,0
"89",2,"S-America-E","West Atlantic","Brazil","Macro","Península Ajuruteua",-46.6864,-0.88642,"Mollusca","Bivalvia","Ostreidae","Crassostrea","Crassostrea tulipa","Inter_F",NA,NA,NA,NA,1,NA,NA,NA,NA,NA,NA,NA,NA,1,NA,NA,NA,0
"90",2,"S-America-E","West Atlantic","Brazil","Macro","Península Ajuruteua",-46.6864,-0.88642,"Mollusca","Bivalvia","Ostreidae","Crassostrea","Crassotrea sp. 1","Inter_F",NA,NA,NA,NA,1,NA,NA,NA,NA,NA,NA,NA,NA,1,NA,NA,NA,0
"91",2,"S-America-E","West Atlantic","Brazil","Macro","Península Ajuruteua",-46.6864,-0.88642,"Mollusca","Bivalvia","Teredinidae","Neoteredo","Neoteredo reynei","Inter_F",NA,NA,NA,NA,NA,NA,NA,NA,NA,1,NA,NA,1,NA,NA,NA,NA,0
"92",2,"S-America-E","West Atlantic","Brazil","Macro","Península Ajuruteua",-46.6864,-0.88642,"Mollusca","Bivalvia","Teredinidae","Lyrodus","Lyrodus pedicellatus","Inter_F",NA,NA,NA,NA,NA,NA,NA,NA,NA,1,NA,NA,1,NA,NA,NA,NA,0
"93",2,"S-America-E","West Atlantic","Brazil","Macro","Península Ajuruteua",-46.6864,-0.88642,"Mollusca","Bivalvia","Teredinidae","Teredo","Teredo sp. 1","Inter_F",NA,NA,NA,NA,NA,NA,NA,NA,NA,1,NA,NA,1,NA,NA,NA,NA,0
"94",2,"S-America-E","West Atlantic","Brazil","Macro","Península Ajuruteua",-46.6864,-0.88642,"Mollusca","Bivalvia","Teredinidae","Bankia","Bankia fimbriatula","Inter_F",NA,NA,NA,NA,NA,NA,NA,NA,NA,1,NA,NA,1,NA,NA,NA,NA,0
"95",2,"S-America-E","West Atlantic","Brazil","Macro","Península Ajuruteua",-46.6864,-0.88642,"Mollusca","Bivalvia","Myidae","Sphenia","Sphenia fragilis","Inter_F",NA,NA,NA,NA,1,NA,NA,NA,NA,NA,NA,NA,NA,1,NA,NA,NA,0
"96",2,"S-America-E","West Atlantic","Brazil","Macro","Península Ajuruteua",-46.6864,-0.88642,"Mollusca","Bivalvia","Pholadidae","Martesia","Martesia striata","Inter_F",NA,NA,NA,NA,NA,NA,NA,NA,NA,1,NA,NA,1,NA,NA,NA,NA,0
"97",2,"S-America-E","West Atlantic","Brazil","Macro","Península Ajuruteua",-46.6864,-0.88642,"Mollusca","Bivalvia","Corbulidae","Anticorbula","Anticorbula fluviatilis","Inter_F",NA,NA,NA,NA,1,NA,NA,NA,NA,NA,NA,NA,NA,1,NA,NA,NA,0
"98",2,"S-America-E","West Atlantic","Brazil","Macro","Península Ajuruteua",-46.6864,-0.88642,"Mollusca","Bivalvia","Pholadidae","Martesia","Martesia fragilis","Inter_F",NA,NA,NA,NA,NA,NA,NA,NA,NA,1,NA,NA,1,NA,NA,NA,NA,0
"99",2,"S-America-E","West Atlantic","Brazil","Macro","Península Ajuruteua",-46.6864,-0.88642,"Mollusca","Bivalvia","cf. Veneridae","cf. Cyclinella","cf. Cyclinella tenuis","Inter_F",NA,NA,NA,NA,1,NA,NA,NA,NA,NA,NA,1,NA,NA,NA,NA,NA,0
"100",2,"S-America-E","West Atlantic","Brazil","Macro","Península Ajuruteua",-46.6864,-0.88642,"Mollusca","Gastropoda","Acteonidae","cf. Acteon","cf. Acteon candens","Inter_F",NA,NA,NA,NA,NA,NA,1,NA,NA,NA,NA,NA,NA,NA,NA,NA,NA,1
"101",2,"S-America-E","West Atlantic","Brazil","Macro","Península Ajuruteua",-46.6864,-0.88642,"Mollusca","Gastropoda","Muricidae","Thaisella","Thaisella coronata","Inter_F",NA,NA,NA,NA,NA,NA,1,NA,NA,NA,NA,NA,NA,NA,NA,NA,NA,1
"102",2,"S-America-E","West Atlantic","Brazil","Macro","Península Ajuruteua",-46.6864,-0.88642,"Mollusca","Gastropoda","Muricidae","Stramonita","Stramonita haemastoma","Inter_F",NA,NA,NA,NA,NA,NA,1,NA,NA,NA,NA,NA,NA,NA,NA,NA,NA,1
"103",2,"S-America-E","West Atlantic","Brazil","Macro","Península Ajuruteua",-46.6864,-0.88642,"Mollusca","Gastropoda","Muricidae","Pinaxia","Pinaxia coronata","Inter_F",NA,NA,NA,NA,NA,NA,1,NA,NA,NA,NA,NA,NA,NA,NA,NA,NA,1
"104",3,"W-Africa","East Atlantic","Mauretania","Meso","Mamgar",-16.07,17.4,"Crustacea","Decapoda","Grapsidae","Goniopsis","Goniopsis pelii","Inter_F",NA,1,NA,NA,NA,NA,1,NA,NA,NA,NA,NA,NA,NA,NA,NA,NA,1
"105",3,"W-Africa","East Atlantic","Mauretania","Meso","Mamgar",-16.07,17.4,"Crustacea","Decapoda","Ocypodidae","Afruca","Afruca tangeri","Inter_M",NA,NA,1,NA,NA,NA,NA,NA,NA,NA,1,NA,NA,NA,NA,1,NA,0
"106",3,"W-Africa","East Atlantic","Mauretania","Meso","Mamgar",-16.07,17.4,"Crustacea","Decapoda","Gecarcinidae","Cardisoma","Cardisoma armatum","Inter_F",NA,1,NA,NA,NA,NA,1,NA,NA,NA,1,NA,NA,NA,1,NA,NA,0
"107",3,"W-Africa","East Atlantic","Mauretania","Meso","Mamgar",-16.07,17.4,"Crustacea","Decapoda","Sesarmidae","Metagrapsus","Metagrapsus curvatus","Inter_F",NA,1,NA,1,NA,NA,NA,NA,NA,NA,1,NA,NA,NA,1,NA,NA,0
"108",3,"W-Africa","East Atlantic","Mauretania","Meso","Mamgar",-16.07,17.4,"Crustacea","Decapoda","Portunidae","Callinectes","Callinectes amnicola","Sub",NA,NA,NA,NA,NA,NA,1,NA,NA,NA,1,NA,NA,NA,NA,NA,NA,0
"109",3,"W-Africa","East Atlantic","Mauretania","Meso","Mamgar",-16.07,17.4,"Crustacea","Decapoda","Portunidae","Callinectes","Callinectes marginatus","Sub",NA,NA,NA,NA,NA,NA,1,NA,NA,NA,1,NA,NA,NA,NA,NA,NA,0
"110",3,"W-Africa","East Atlantic","Mauretania","Meso","Mamgar",-16.07,17.4,"Crustacea","Decapoda","Portunidae","Callinectes","Callinectes pallidus","Sub",NA,NA,NA,NA,NA,NA,1,NA,NA,NA,1,NA,NA,NA,NA,NA,NA,0
"111",4,"W-Africa","East Atlantic","Cameroon","Macro","Douala",9.7647858,4.1382431,"Crustacea","Decapoda","Gecarcinidae","Cardisoma","Cardisoma armatum","Inter_F",NA,1,NA,NA,NA,NA,1,NA,NA,NA,1,NA,NA,NA,1,NA,NA,0
"112",4,"W-Africa","East Atlantic","Cameroon","Macro","Douala",9.7647858,4.1382431,"Crustacea","Decapoda","Grapsidae","Goniopsis","Goniopsis pelii","Inter_F",NA,1,NA,NA,NA,NA,1,NA,NA,NA,NA,NA,NA,NA,NA,NA,NA,1
"113",4,"W-Africa","East Atlantic","Cameroon","Macro","Douala",9.7647858,4.1382431,"Crustacea","Decapoda","Grapsidae","Pachygrapsus","Pachygrapsus transversus","Inter_F",NA,NA,NA,NA,NA,NA,NA,1,NA,NA,1,NA,NA,NA,NA,NA,NA,0
"114",4,"W-Africa","East Atlantic","Cameroon","Macro","Douala",9.7647858,4.1382431,"Mollusca","Gastropoda","Potamididae","Tympanotonos","Tympanotonos fuscatus","Inter_F",NA,NA,NA,1,NA,NA,NA,NA,NA,NA,NA,NA,NA,NA,NA,NA,NA,1
"115",4,"W-Africa","East Atlantic","Cameroon","Macro","Douala",9.7647858,4.1382431,"Crustacea","Decapoda","Sesarmidae","Armases","Armases elegans","Inter_F",1,NA,NA,NA,NA,NA,NA,NA,NA,NA,NA,NA,NA,NA,NA,NA,NA,1
"116",4,"W-Africa","East Atlantic","Cameroon","Macro","Douala",9.7647858,4.1382431,"Crustacea","Decapoda","Sesarmidae","Platychirarma","Platychirarma buettikoferi","Inter_F",NA,1,NA,1,NA,NA,NA,NA,NA,NA,NA,NA,NA,NA,NA,NA,NA,1
"117",4,"W-Africa","East Atlantic","Cameroon","Macro","Douala",9.7647858,4.1382431,"Crustacea","Decapoda","Sesarmidae","Trapezarma","Trapezarma angolense","Inter_M",NA,1,NA,1,NA,NA,NA,NA,NA,NA,1,NA,NA,NA,NA,NA,NA,0
"118",4,"W-Africa","East Atlantic","Cameroon","Macro","Douala",9.7647858,4.1382431,"Mollusca","Bivalvia","Teredinidae","Teredo","Teredo sp. 1","Inter_F",NA,NA,NA,NA,NA,NA,NA,NA,NA,1,NA,NA,1,NA,NA,NA,NA,0
"119",4,"W-Africa","East Atlantic","Cameroon","Macro","Douala",9.7647858,4.1382431,"Crustacea","Decapoda","Ocypodidae","Afruca","Afruca tangeri","Inter_M",NA,NA,1,NA,NA,NA,NA,NA,NA,NA,1,NA,NA,NA,NA,1,NA,0
"120",4,"W-Africa","East Atlantic","Cameroon","Macro","Douala",9.7647858,4.1382431,"Mollusca","Bivalvia","Ostreidae","Saccostrea","Saccostrea sp. 1","Inter_F",NA,NA,NA,NA,1,NA,NA,NA,NA,NA,NA,NA,NA,1,NA,NA,NA,0
"121",4,"W-Africa","East Atlantic","Cameroon","Macro","Douala",9.7647858,4.1382431,"Crustacea","Decapoda","Sesarmidae","Guinearma","Guinearma alberti","Inter_F",NA,1,NA,NA,NA,NA,NA,NA,NA,NA,1,NA,NA,NA,1,NA,NA,0
"122",4,"W-Africa","East Atlantic","Cameroon","Macro","Douala",9.7647858,4.1382431,"Crustacea","Decapoda","Sesarmidae","Guinearma","Guinearma huzardi","Inter_F",NA,1,NA,1,NA,NA,NA,NA,NA,NA,1,NA,NA,NA,1,NA,NA,0
"123",4,"W-Africa","East Atlantic","Cameroon","Macro","Douala",9.7647858,4.1382431,"Crustacea","Decapoda","Sesarmidae","Guinearma","Guinearma kamermani","Inter_F",NA,1,NA,1,NA,NA,NA,NA,NA,NA,1,NA,NA,NA,1,NA,NA,0
"124",4,"W-Africa","East Atlantic","Cameroon","Macro","Douala",9.7647858,4.1382431,"Crustacea","Decapoda","Sesarmidae","Metagrapsus","Metagrapsus curvatus","Inter_F",NA,1,NA,1,NA,NA,NA,NA,NA,NA,1,NA,NA,NA,1,NA,NA,0
"125",4,"W-Africa","East Atlantic","Cameroon","Macro","Douala",9.7647858,4.1382431,"Mollusca","Gastropoda","Hemisinidae ","Pachymelania","Pachymelania fusca","Inter_F",NA,NA,1,NA,NA,NA,NA,NA,NA,NA,NA,NA,NA,NA,NA,NA,NA,1
"126",5,"S-Africa","West Indian","South Africa","Meso","Mgazana",29.39,-31.69,"Crustacea","Decapoda","Grapsidae","Metopograpsus","Metopograpsus oceanicus","Inter_F",NA,NA,NA,NA,NA,1,1,NA,NA,NA,NA,NA,NA,NA,NA,NA,NA,1
"127",5,"S-Africa","West Indian","South Africa","Meso","Mgazana",29.39,-31.69,"Crustacea","Decapoda","Ocypodidae","Austruca","Austruca occidentalis","Inter_F",NA,NA,1,NA,NA,NA,NA,NA,NA,NA,1,NA,NA,NA,NA,1,NA,0
"128",5,"S-Africa","West Indian","South Africa","Meso","Mgazana",29.39,-31.69,"Mollusca","Bivalvia","Ostreidae","Saccostrea","Saccostrea cuccullata","Inter_F",NA,NA,NA,NA,1,NA,NA,NA,NA,NA,NA,NA,NA,1,NA,NA,NA,0
"129",5,"S-Africa","West Indian","South Africa","Meso","Mgazana",29.39,-31.69,"Crustacea","Decapoda","Sesarmidae","Neosarmatium","Neosarmatium africanum","Inter_F",NA,1,NA,1,NA,NA,NA,NA,NA,NA,1,NA,NA,NA,1,NA,NA,0
"130",5,"S-Africa","West Indian","South Africa","Meso","Mgazana",29.39,-31.69,"Crustacea","Decapoda","Sesarmidae","Neosarmatium","Neosarmatium smithi","Inter_F",NA,1,NA,1,NA,NA,NA,NA,NA,NA,1,NA,NA,NA,1,NA,NA,0
"131",5,"S-Africa","West Indian","South Africa","Meso","Mgazana",29.39,-31.69,"Crustacea","Decapoda","Sesarmidae","Parasesarma","Parasesarma catenatum","Inter_F",NA,1,NA,1,NA,NA,NA,NA,NA,NA,1,NA,NA,NA,NA,NA,1,0
"132",5,"S-Africa","West Indian","South Africa","Meso","Mgazana",29.39,-31.69,"Mollusca","Gastropoda","Potamididae","Cerithidea","Cerithidea decollata","Inter_F",NA,NA,1,NA,NA,NA,NA,NA,NA,NA,NA,NA,NA,NA,NA,NA,NA,1
"133",5,"S-Africa","West Indian","South Africa","Meso","Mgazana",29.39,-31.69,"Crustacea","Decapoda","Ocypodidae","Tubuca","Tubuca urvillei","Inter_F",NA,NA,1,NA,NA,NA,NA,NA,NA,NA,1,NA,NA,NA,NA,1,NA,0
"134",5,"S-Africa","West Indian","South Africa","Meso","Mgazana",29.39,-31.69,"Crustacea","Decapoda","Coenobitidae","Coenobita","Coenobita cavipes","Supra",NA,NA,NA,NA,NA,NA,NA,1,NA,NA,NA,NA,NA,NA,NA,NA,NA,1
"135",5,"S-Africa","West Indian","South Africa","Meso","Mgazana",29.39,-31.69,"Mollusca","Gastropoda","Littorinidae","Littoraria","Littoraria coccinea glabrata","Inter_F",NA,NA,1,NA,NA,NA,NA,NA,NA,NA,NA,NA,NA,NA,NA,NA,NA,1
"136",5,"S-Africa","West Indian","South Africa","Meso","Mgazana",29.39,-31.69,"Crustacea","Decapoda","Macrophthalmidae","Macrophthalmus","Macrophthalmus parvimanus","Inter_F",NA,NA,NA,1,NA,NA,NA,NA,NA,NA,1,NA,NA,NA,NA,NA,NA,0
"137",5,"S-Africa","West Indian","South Africa","Meso","Mgazana",29.39,-31.69,"Crustacea","Decapoda","Ocypodidae","Paraleptuca","Paraleptuca chlorophthalmus","Inter_F",NA,NA,1,NA,NA,NA,NA,NA,NA,NA,1,NA,NA,NA,NA,1,NA,0
"138",5,"S-Africa","West Indian","South Africa","Meso","Mgazana",29.39,-31.69,"Mollusca","Bivalvia","Margaritidae ","Pinctada","Pinctada capensis","Inter_F",NA,NA,NA,NA,1,NA,NA,NA,NA,NA,NA,NA,NA,1,NA,NA,NA,0
"139",5,"S-Africa","West Indian","South Africa","Meso","Mgazana",29.39,-31.69,"Crustacea","Decapoda","Pilumnidae","Eurycarcinus","Eurycarcinus natalensis","Inter_F",NA,NA,NA,NA,NA,NA,1,NA,NA,NA,1,NA,NA,NA,NA,NA,NA,0
"140",5,"S-Africa","West Indian","South Africa","Meso","Mgazana",29.39,-31.69,"Crustacea","Decapoda","Portunidae","Scylla","Scylla serrata","Sub",NA,NA,NA,NA,NA,NA,1,NA,NA,NA,1,NA,NA,NA,NA,NA,NA,0
"141",5,"S-Africa","West Indian","South Africa","Meso","Mgazana",29.39,-31.69,"Crustacea","Decapoda","Sesarmidae","Cristarma","Cristarma eulimene","Supra",NA,1,NA,NA,NA,NA,1,NA,NA,NA,1,NA,NA,NA,NA,NA,1,0
"142",5,"S-Africa","West Indian","South Africa","Meso","Mgazana",29.39,-31.69,"Crustacea","Decapoda","Sesarmidae","Parasesarma","Parasesarma guttatum","Inter_F",NA,1,NA,1,NA,NA,NA,NA,NA,NA,NA,NA,NA,NA,NA,NA,1,1
"143",5,"S-Africa","West Indian","South Africa","Meso","Mgazana",29.39,-31.69,"Crustacea","Decapoda","Sesarmidae","Leptarma","Leptarma leptosoma","Inter_F",1,NA,NA,NA,NA,NA,NA,NA,NA,NA,1,NA,NA,NA,NA,NA,NA,0
"144",5,"S-Africa","West Indian","South Africa","Meso","Mgazana",29.39,-31.69,"Crustacea","Decapoda","Sesarmidae","Sesarmoides","Sesarmoides longipes","Inter_F",NA,1,NA,1,NA,NA,NA,NA,NA,NA,1,NA,NA,NA,NA,NA,NA,0
"145",5,"S-Africa","West Indian","South Africa","Meso","Mgazana",29.39,-31.69,"Crustacea","Decapoda","Upogebiidae","Upogebia","Upogebia africana","Inter_M",NA,NA,NA,NA,1,NA,NA,NA,NA,NA,1,NA,NA,NA,NA,NA,NA,0
"146",5,"S-Africa","West Indian","South Africa","Meso","Mgazana",29.39,-31.69,"Crustacea","Decapoda","Varunidae","Pseudohelice","Pseudohelice subquadrata","Inter_F",NA,1,NA,1,NA,NA,NA,NA,NA,NA,1,NA,NA,NA,NA,NA,1,0
"147",6,"E-Africa","West Indian","Mozambique","Meso","Saco da Inhaca",32.54,-26.2,"Crustacea","Decapoda","Sesarmidae","Parasesarma","Parasesarma catenatum","Inter_F",NA,1,NA,1,NA,NA,NA,NA,NA,NA,1,NA,NA,NA,NA,NA,1,0
"148",6,"E-Africa","West Indian","Mozambique","Meso","Saco da Inhaca",32.54,-26.2,"Crustacea","Decapoda","Sesarmidae","Parasesarma","Parasesarma guttatum","Inter_F",NA,1,NA,1,NA,NA,NA,NA,NA,NA,NA,NA,NA,NA,NA,NA,1,1
"149",6,"E-Africa","West Indian","Mozambique","Meso","Saco da Inhaca",32.54,-26.2,"Crustacea","Decapoda","Sesarmidae","Sarmatium","Sarmatium crassum","Inter_F",NA,1,NA,1,NA,NA,NA,NA,NA,NA,1,NA,NA,NA,NA,NA,1,0
"150",6,"E-Africa","West Indian","Mozambique","Meso","Saco da Inhaca",32.54,-26.2,"Mollusca","Gastropoda","Naticidae","Polinices","Polinices mammilla","Sub",NA,NA,NA,NA,NA,NA,1,NA,NA,NA,NA,NA,NA,NA,NA,NA,NA,1
"151",6,"E-Africa","West Indian","Mozambique","Meso","Saco da Inhaca",32.54,-26.2,"Crustacea","Decapoda","Ocypodidae","Cranuca","Cranuca inversa","Inter_F",NA,NA,1,NA,NA,NA,NA,NA,NA,NA,1,NA,NA,NA,NA,1,NA,0
"152",6,"E-Africa","West Indian","Mozambique","Meso","Saco da Inhaca",32.54,-26.2,"Crustacea","Decapoda","Ocypodidae","Gelasimus","Gelasimus hesperiae","Inter_M",NA,NA,1,NA,NA,NA,NA,NA,NA,NA,1,NA,NA,NA,NA,1,NA,0
"153",6,"E-Africa","West Indian","Mozambique","Meso","Saco da Inhaca",32.54,-26.2,"Mollusca","Gastropoda","Potamididae","Terebralia","Terebralia palustris","Inter_F",NA,1,NA,NA,NA,NA,NA,NA,NA,NA,NA,NA,NA,NA,NA,NA,NA,1
"154",6,"E-Africa","West Indian","Mozambique","Meso","Saco da Inhaca",32.54,-26.2,"Crustacea","Decapoda","Sesarmidae","Leptarma","Leptarma leptosoma","Inter_F",1,NA,NA,NA,NA,NA,NA,NA,NA,NA,1,NA,NA,NA,NA,NA,NA,0
"155",6,"E-Africa","West Indian","Mozambique","Meso","Saco da Inhaca",32.54,-26.2,"Mollusca","Bivalvia","Ostreidae","Saccostrea","Saccostrea cuccullata","Inter_F",NA,NA,NA,NA,1,NA,NA,NA,NA,NA,NA,NA,NA,1,NA,NA,NA,0
"156",6,"E-Africa","West Indian","Mozambique","Meso","Saco da Inhaca",32.54,-26.2,"Crustacea","Decapoda","Portunidae","Scylla","Scylla serrata","Sub",NA,NA,NA,NA,NA,NA,1,NA,NA,NA,1,NA,NA,NA,NA,NA,NA,0
"157",6,"E-Africa","West Indian","Mozambique","Meso","Saco da Inhaca",32.54,-26.2,"Crustacea","Decapoda","Oziidae","Epixanthus","Epixanthus dentatus","Inter_F",NA,NA,NA,NA,NA,NA,1,NA,NA,NA,NA,NA,NA,NA,NA,NA,NA,1
"158",6,"E-Africa","West Indian","Mozambique","Meso","Saco da Inhaca",32.54,-26.2,"Crustacea","Decapoda","Sesarmidae","Cristarma","Cristarma eulimene","Supra",NA,1,NA,NA,NA,NA,1,NA,NA,NA,1,NA,NA,NA,NA,NA,1,0
"159",6,"E-Africa","West Indian","Mozambique","Meso","Saco da Inhaca",32.54,-26.2,"Crustacea","Decapoda","Sesarmidae","Cristarma","Cristarma ortmanni","Supra",NA,1,NA,NA,NA,NA,1,NA,NA,NA,1,NA,NA,NA,NA,NA,1,0
"160",6,"E-Africa","West Indian","Mozambique","Meso","Saco da Inhaca",32.54,-26.2,"Crustacea","Decapoda","Coenobitidae","Coenobita","Coenobita cavipes","Supra",NA,NA,NA,NA,NA,NA,NA,1,NA,NA,NA,NA,NA,NA,NA,NA,NA,1
"161",6,"E-Africa","West Indian","Mozambique","Meso","Saco da Inhaca",32.54,-26.2,"Crustacea","Decapoda","Grapsidae","Metopograpsus","Metopograpsus messor","Inter_F",NA,NA,NA,NA,NA,1,1,NA,NA,NA,NA,NA,NA,NA,NA,NA,NA,1
"162",6,"E-Africa","West Indian","Mozambique","Meso","Saco da Inhaca",32.54,-26.2,"Crustacea","Decapoda","Grapsidae","Metopograpsus","Metopograpsus oceanicus","Inter_F",NA,NA,NA,NA,NA,1,1,NA,NA,NA,NA,NA,NA,NA,NA,NA,NA,1
"163",6,"E-Africa","West Indian","Mozambique","Meso","Saco da Inhaca",32.54,-26.2,"Crustacea","Decapoda","Grapsidae","Metopograpsus","Metopograpsus cannicci","Inter_F",NA,NA,NA,NA,NA,1,1,NA,NA,NA,NA,NA,NA,NA,NA,NA,NA,1
"164",6,"E-Africa","West Indian","Mozambique","Meso","Saco da Inhaca",32.54,-26.2,"Mollusca","Gastropoda","Littorinidae","Littoraria","Littoraria coccinea glabrata","Inter_F",NA,NA,1,NA,NA,NA,NA,NA,NA,NA,NA,NA,NA,NA,NA,NA,NA,1
"165",6,"E-Africa","West Indian","Mozambique","Meso","Saco da Inhaca",32.54,-26.2,"Crustacea","Decapoda","Macrophthalmidae","Macrophthalmus","Macrophthalmus depressus","Inter_M",NA,NA,NA,1,NA,NA,NA,NA,NA,NA,1,NA,NA,NA,NA,NA,NA,0
"166",6,"E-Africa","West Indian","Mozambique","Meso","Saco da Inhaca",32.54,-26.2,"Crustacea","Decapoda","Macrophthalmidae","Macrophthalmus","Macrophthalmus parvimanus","Inter_M",NA,NA,NA,1,NA,NA,NA,NA,NA,NA,1,NA,NA,NA,NA,NA,NA,0
"167",6,"E-Africa","West Indian","Mozambique","Meso","Saco da Inhaca",32.54,-26.2,"Crustacea","Decapoda","Ocypodidae","Austruca","Austruca occidentalis","Inter_F",NA,NA,1,NA,NA,NA,NA,NA,NA,NA,1,NA,NA,NA,NA,1,NA,0
"168",6,"E-Africa","West Indian","Mozambique","Meso","Saco da Inhaca",32.54,-26.2,"Crustacea","Decapoda","Ocypodidae","Paraleptuca","Paraleptuca chlorophthalmus","Inter_F",NA,NA,1,NA,NA,NA,NA,NA,NA,NA,1,NA,NA,NA,NA,1,NA,0
"169",6,"E-Africa","West Indian","Mozambique","Meso","Saco da Inhaca",32.54,-26.2,"Crustacea","Decapoda","Ocypodidae","Tubuca","Tubuca urvillei","Inter_F",NA,NA,1,NA,NA,NA,NA,NA,NA,NA,1,NA,NA,NA,NA,1,NA,0
"170",6,"E-Africa","West Indian","Mozambique","Meso","Saco da Inhaca",32.54,-26.2,"Mollusca","Bivalvia","Margaritidae ","Pinctada","Pinctada capensis","Inter_F",NA,NA,NA,NA,1,NA,NA,NA,NA,NA,NA,NA,NA,1,NA,NA,NA,0
"171",6,"E-Africa","West Indian","Mozambique","Meso","Saco da Inhaca",32.54,-26.2,"Crustacea","Decapoda","Pilumnidae","Eurycarcinus","Eurycarcinus natalensis","Inter_F",NA,NA,NA,NA,NA,NA,1,NA,NA,NA,1,NA,NA,NA,NA,NA,NA,0
"172",6,"E-Africa","West Indian","Mozambique","Meso","Saco da Inhaca",32.54,-26.2,"Mollusca","Gastropoda","Potamididae","Cerithidea","Cerithidea decollata","Inter_F",NA,NA,1,NA,NA,NA,NA,NA,NA,NA,NA,NA,NA,NA,NA,NA,NA,1
"173",6,"E-Africa","West Indian","Mozambique","Meso","Saco da Inhaca",32.54,-26.2,"Crustacea","Decapoda","Sesarmidae","Neosarmatium","Neosarmatium africanum","Inter_F",NA,1,NA,1,NA,NA,NA,NA,NA,NA,1,NA,NA,NA,1,NA,NA,0
"174",6,"E-Africa","West Indian","Mozambique","Meso","Saco da Inhaca",32.54,-26.2,"Crustacea","Decapoda","Sesarmidae","Neosarmatium","Neosarmatium smithi","Inter_F",NA,1,NA,1,NA,NA,NA,NA,NA,NA,1,NA,NA,NA,1,NA,NA,0
"175",6,"E-Africa","West Indian","Mozambique","Meso","Saco da Inhaca",32.54,-26.2,"Crustacea","Decapoda","Sesarmidae","Sesarmoides","Sesarmoides longipes","Inter_F",NA,1,NA,1,NA,NA,NA,NA,NA,NA,1,NA,NA,NA,NA,NA,NA,0
"176",6,"E-Africa","West Indian","Mozambique","Meso","Saco da Inhaca",32.54,-26.2,"Crustacea","Decapoda","Varunidae","Pseudohelice","Pseudohelice subquadrata","Inter_F",NA,1,NA,1,NA,NA,NA,NA,NA,NA,1,NA,NA,NA,NA,NA,1,0
"177",7.1,"E-Africa","West Indian","Kenya","Meso","Gazi",39.31,-4.25,"Crustacea","Decapoda","Macrophthalmidae","Macrophthalmus","Macrophthalmus depressus","Inter_M",NA,NA,NA,1,NA,NA,NA,NA,NA,NA,1,NA,NA,NA,NA,NA,NA,0
"178",7.1,"E-Africa","West Indian","Kenya","Meso","Gazi",39.31,-4.25,"Crustacea","Decapoda","Macrophthalmidae","Macrophthalmus","Macrophthalmus parvimanus","Inter_M",NA,NA,NA,1,NA,NA,NA,NA,NA,NA,1,NA,NA,NA,NA,NA,NA,0
"179",7.1,"E-Africa","West Indian","Kenya","Meso","Gazi",39.31,-4.25,"Crustacea","Decapoda","Diogenidae","Clibanarius","Clibanarius laevimaus","Inter_M",NA,NA,NA,NA,NA,NA,NA,1,NA,NA,NA,NA,NA,NA,NA,NA,NA,1
"180",7.1,"E-Africa","West Indian","Kenya","Meso","Gazi",39.31,-4.25,"Crustacea","Decapoda","Diogenidae","Clibanarius","Clibanarius longitarsus","Inter_M",NA,NA,NA,NA,NA,NA,NA,1,NA,NA,NA,NA,NA,NA,NA,NA,NA,1
"181",7.1,"E-Africa","West Indian","Kenya","Meso","Gazi",39.31,-4.25,"Crustacea","Decapoda","Gecarcinidae","Cardisoma","Cardisoma carnifex","Supra",NA,1,NA,NA,NA,NA,1,NA,NA,NA,1,NA,NA,NA,1,NA,NA,0
"182",7.1,"E-Africa","West Indian","Kenya","Meso","Gazi",39.31,-4.25,"Crustacea","Decapoda","Ocypodidae","Cranuca","Cranuca inversa","Inter_F",NA,NA,1,NA,NA,NA,NA,NA,NA,NA,1,NA,NA,NA,NA,1,NA,0
"183",7.1,"E-Africa","West Indian","Kenya","Meso","Gazi",39.31,-4.25,"Mollusca","Bivalvia","Ostreidae","Saccostrea","Saccostrea cuccullata","Inter_F",NA,NA,NA,NA,1,NA,NA,NA,NA,NA,NA,NA,NA,1,NA,NA,NA,0
"184",7.1,"E-Africa","West Indian","Kenya","Meso","Gazi",39.31,-4.25,"Mollusca","Gastropoda","Potamididae","Terebralia","Terebralia palustris","Inter_F",NA,1,NA,NA,NA,NA,NA,NA,NA,NA,NA,NA,NA,NA,NA,NA,NA,1
"185",7.1,"E-Africa","West Indian","Kenya","Meso","Gazi",39.31,-4.25,"Crustacea","Decapoda","Sesarmidae","Clistocoeloma","Clistocoeloma villosum","Inter_F",NA,NA,NA,1,NA,NA,NA,NA,NA,NA,1,NA,NA,NA,NA,NA,1,0
"186",7.1,"E-Africa","West Indian","Kenya","Meso","Gazi",39.31,-4.25,"Crustacea","Decapoda","Sesarmidae","Leptarma","Leptarma gazi","Inter_F",NA,1,NA,1,NA,NA,NA,NA,NA,NA,NA,NA,NA,NA,NA,NA,1,1
"187",7.1,"E-Africa","West Indian","Kenya","Meso","Gazi",39.31,-4.25,"Crustacea","Decapoda","Sesarmidae","Parasesarma","Parasesarma guttatum","Inter_F",NA,1,NA,1,NA,NA,NA,NA,NA,NA,NA,NA,NA,NA,NA,NA,1,1
"188",7.1,"E-Africa","West Indian","Kenya","Meso","Gazi",39.31,-4.25,"Crustacea","Decapoda","Sesarmidae","Leptarma","Leptarma leptosoma","Inter_F",1,NA,NA,NA,NA,NA,NA,NA,NA,NA,1,NA,NA,NA,NA,NA,NA,0
"189",7.1,"E-Africa","West Indian","Kenya","Meso","Gazi",39.31,-4.25,"Crustacea","Decapoda","Sesarmidae","Parasesarma","Parasesarma samawati","Inter_F",NA,1,NA,1,NA,NA,NA,NA,NA,NA,NA,NA,NA,NA,NA,NA,1,1
"190",7.1,"E-Africa","West Indian","Kenya","Meso","Gazi",39.31,-4.25,"Crustacea","Decapoda","Hippolytidae","Merguia","Merguia oligodon","Inter_F",NA,NA,NA,1,NA,NA,NA,NA,NA,NA,NA,NA,NA,NA,NA,NA,NA,1
"191",7.1,"E-Africa","West Indian","Kenya","Meso","Gazi",39.31,-4.25,"Crustacea","Decapoda","Oziidae","Epixanthus","Epixanthus dentatus","Inter_F",NA,NA,NA,NA,NA,NA,1,NA,NA,NA,NA,NA,NA,NA,NA,NA,NA,1
"192",7.1,"E-Africa","West Indian","Kenya","Meso","Gazi",39.31,-4.25,"Crustacea","Decapoda","Sesarmidae","Cristarma","Cristarma eulimene","Supra",NA,1,NA,NA,NA,NA,1,NA,NA,NA,1,NA,NA,NA,NA,NA,1,0
"193",7.1,"E-Africa","West Indian","Kenya","Meso","Gazi",39.31,-4.25,"Crustacea","Decapoda","Sesarmidae","Cristarma","Cristarma ortmanni","Supra",NA,1,NA,NA,NA,NA,1,NA,NA,NA,1,NA,NA,NA,NA,NA,1,0
"194",7.1,"E-Africa","West Indian","Kenya","Meso","Gazi",39.31,-4.25,"Crustacea","Decapoda","Varunidae","Pseudohelice","Pseudohelice subquadrata","Inter_F",NA,1,NA,1,NA,NA,NA,NA,NA,NA,1,NA,NA,NA,NA,NA,1,0
"195",7.1,"E-Africa","West Indian","Kenya","Meso","Gazi",39.31,-4.25,"Crustacea","Decapoda","Grapsidae","Metopograpsus","Metopograpsus messor","Inter_F",NA,NA,NA,NA,NA,1,1,NA,NA,NA,NA,NA,NA,NA,NA,NA,NA,1
"196",7.1,"E-Africa","West Indian","Kenya","Meso","Gazi",39.31,-4.25,"Crustacea","Decapoda","Grapsidae","Metopograpsus","Metopograpsus oceanicus","Inter_F",NA,NA,NA,NA,NA,1,1,NA,NA,NA,NA,NA,NA,NA,NA,NA,NA,1
"197",7.1,"E-Africa","West Indian","Kenya","Meso","Gazi",39.31,-4.25,"Mollusca","Gastropoda","Potamididae","Cerithidea","Cerithidea decollata","Inter_F",NA,NA,1,NA,NA,NA,NA,NA,NA,NA,NA,NA,NA,NA,NA,NA,NA,1
"198",7.1,"E-Africa","West Indian","Kenya","Meso","Gazi",39.31,-4.25,"Crustacea","Decapoda","Sesarmidae","Sarmatium","Sarmatium crassum","Inter_F",NA,1,NA,1,NA,NA,NA,NA,NA,NA,1,NA,NA,NA,NA,NA,1,0
"199",7.1,"E-Africa","West Indian","Kenya","Meso","Gazi",39.31,-4.25,"Mollusca","Gastropoda","Melongenidae","Volema","Volema pyrum","Sub",NA,NA,NA,NA,NA,NA,1,NA,NA,NA,NA,NA,NA,NA,NA,NA,NA,1
"200",7.1,"E-Africa","West Indian","Kenya","Meso","Gazi",39.31,-4.25,"Crustacea","Decapoda","Coenobitidae","Coenobita","Coenobita cavipes","Supra",NA,NA,NA,NA,NA,NA,NA,1,NA,NA,NA,NA,NA,NA,NA,NA,NA,1
"201",7.1,"E-Africa","West Indian","Kenya","Meso","Gazi",39.31,-4.25,"Crustacea","Decapoda","Oziidae","Ozius","Ozius guttatus","Inter_F",NA,NA,NA,NA,NA,NA,1,NA,NA,NA,NA,NA,NA,NA,NA,NA,NA,1
"202",7.1,"E-Africa","West Indian","Kenya","Meso","Gazi",39.31,-4.25,"Crustacea","Decapoda","Sesarmidae","Neosarmatium","Neosarmatium smithi","Inter_F",NA,1,NA,1,NA,NA,NA,NA,NA,NA,1,NA,NA,NA,1,NA,NA,0
"203",7.1,"E-Africa","West Indian","Kenya","Meso","Gazi",39.31,-4.25,"Crustacea","Decapoda","Sesarmidae","Sesarmoides","Sesarmoides longipes","Inter_F",NA,1,NA,1,NA,NA,NA,NA,NA,NA,1,NA,NA,NA,NA,NA,NA,0
"204",7.1,"E-Africa","West Indian","Kenya","Meso","Gazi",39.31,-4.25,"Crustacea","Decapoda","Alpheidae","Alpheus","Alpheus sp. 1","Inter_F",NA,NA,NA,1,NA,NA,NA,NA,NA,NA,1,NA,NA,NA,NA,NA,NA,0
"205",7.1,"E-Africa","West Indian","Kenya","Meso","Gazi",39.31,-4.25,"Crustacea","Decapoda","Grapsidae","Metopograpsus","Metopograpsus cannicci","Inter_F",NA,NA,NA,NA,NA,1,1,NA,NA,NA,NA,NA,NA,NA,NA,NA,NA,1
"206",7.1,"E-Africa","West Indian","Kenya","Meso","Gazi",39.31,-4.25,"Mollusca","Bivalvia","Isognomonidae","Isognomon","Isognomon ephippium","Inter_F",NA,NA,NA,NA,1,NA,NA,NA,NA,NA,NA,NA,NA,1,NA,NA,NA,0
"207",7.1,"E-Africa","West Indian","Kenya","Meso","Gazi",39.31,-4.25,"Mollusca","Gastropoda","Littorinidae","Littoraria","Littoraria scabra","Inter_F",NA,NA,1,NA,NA,NA,NA,NA,NA,NA,NA,NA,NA,NA,NA,NA,NA,1
"208",7.1,"E-Africa","West Indian","Kenya","Meso","Gazi",39.31,-4.25,"Mollusca","Gastropoda","Littorinidae","Littoraria","Littoraria pallescens","Inter_F",NA,NA,1,NA,NA,NA,NA,NA,NA,NA,NA,NA,NA,NA,NA,NA,NA,1
"209",7.1,"E-Africa","West Indian","Kenya","Meso","Gazi",39.31,-4.25,"Mollusca","Bivalvia","Lucinidae","Anodontia","Anodontia edentula","Inter_F",NA,NA,NA,NA,1,NA,NA,NA,NA,NA,NA,1,NA,NA,NA,NA,NA,0
"210",7.1,"E-Africa","West Indian","Kenya","Meso","Gazi",39.31,-4.25,"Mollusca","Bivalvia","Lucinidae","Loripes","Loripes clausus","Inter_F",NA,NA,NA,NA,1,NA,NA,NA,NA,NA,NA,1,NA,NA,NA,NA,NA,0
"211",7.1,"E-Africa","West Indian","Kenya","Meso","Gazi",39.31,-4.25,"Crustacea","Decapoda","Ocypodidae","Austruca","Austruca occidentalis","Inter_F",NA,NA,1,NA,NA,NA,NA,NA,NA,NA,1,NA,NA,NA,NA,1,NA,0
"212",7.1,"E-Africa","West Indian","Kenya","Meso","Gazi",39.31,-4.25,"Crustacea","Decapoda","Ocypodidae","Gelasimus","Gelasimus hesperiae","Inter_M",NA,NA,1,NA,NA,NA,NA,NA,NA,NA,1,NA,NA,NA,NA,1,NA,0
"213",7.1,"E-Africa","West Indian","Kenya","Meso","Gazi",39.31,-4.25,"Crustacea","Decapoda","Ocypodidae","Paraleptuca","Paraleptuca chlorophthalmus","Inter_F",NA,NA,1,NA,NA,NA,NA,NA,NA,NA,1,NA,NA,NA,NA,1,NA,0
"214",7.1,"E-Africa","West Indian","Kenya","Meso","Gazi",39.31,-4.25,"Crustacea","Decapoda","Ocypodidae","Tubuca","Tubuca urvillei","Inter_F",NA,NA,1,NA,NA,NA,NA,NA,NA,NA,1,NA,NA,NA,NA,1,NA,0
"215",7.1,"E-Africa","West Indian","Kenya","Meso","Gazi",39.31,-4.25,"Mollusca","Gastropoda","Onchidiidae","Peronia","Peronia sp. 1","Inter_F",NA,NA,1,NA,NA,NA,NA,NA,NA,NA,NA,NA,NA,NA,NA,NA,NA,1
"216",7.1,"E-Africa","West Indian","Kenya","Meso","Gazi",39.31,-4.25,"Crustacea","Decapoda","Pilumnidae","Eurycarcinus","Eurycarcinus natalensis","Inter_F",NA,NA,NA,NA,NA,NA,1,NA,NA,NA,1,NA,NA,NA,NA,NA,NA,0
"217",7.1,"E-Africa","West Indian","Kenya","Meso","Gazi",39.31,-4.25,"Crustacea","Decapoda","Porcellanidae","Petrolisthes","Petrolisthes lamarckii","Inter_F",NA,NA,NA,NA,1,NA,NA,NA,NA,NA,NA,NA,NA,NA,NA,NA,NA,1
"218",7.1,"E-Africa","West Indian","Kenya","Meso","Gazi",39.31,-4.25,"Crustacea","Decapoda","Portunidae","Scylla","Scylla serrata","Sub",NA,NA,NA,NA,NA,NA,1,NA,NA,NA,1,NA,NA,NA,NA,NA,NA,0
"219",7.1,"E-Africa","West Indian","Kenya","Meso","Gazi",39.31,-4.25,"Crustacea","Decapoda","Portunidae","Thalamita","Thalamita crenata","Sub",NA,NA,NA,NA,NA,NA,1,NA,NA,NA,1,NA,NA,NA,NA,NA,NA,0
"220",7.1,"E-Africa","West Indian","Kenya","Meso","Gazi",39.31,-4.25,"Crustacea","Decapoda","Sesarmidae","Neosarmatium","Neosarmatium africanum","Inter_F",NA,1,NA,1,NA,NA,NA,NA,NA,NA,1,NA,NA,NA,1,NA,NA,0
"221",7.1,"E-Africa","West Indian","Kenya","Meso","Gazi",39.31,-4.25,"Crustacea","Decapoda","Sesarmidae","Selatium","Selatium brockii","Inter_F",NA,NA,NA,NA,NA,NA,NA,1,NA,NA,NA,NA,NA,NA,NA,NA,NA,1
"222",7.1,"E-Africa","West Indian","Kenya","Meso","Gazi",39.31,-4.25,"Crustacea","Decapoda","Sesarmidae","Selatium","Selatium elongatum","Inter_F",NA,NA,NA,NA,NA,NA,NA,1,NA,NA,NA,NA,NA,NA,NA,NA,NA,1
"223",7.1,"E-Africa","West Indian","Kenya","Meso","Gazi",39.31,-4.25,"Mollusca","Bivalvia","Teredinidae","Dicyathifer","Dicyathifer mannii","Inter_F",NA,NA,NA,NA,NA,NA,NA,NA,NA,1,NA,NA,1,NA,NA,NA,NA,0
"224",7.2,"E-Africa","West Indian","Kenya","Meso","Mida Creek",39.98,-3.35,"Crustacea","Decapoda","Diogenidae","Clibanarius","Clibanarius laevimaus","Inter_M",NA,NA,NA,NA,NA,NA,NA,1,NA,NA,NA,NA,NA,NA,NA,NA,NA,1
"225",7.2,"E-Africa","West Indian","Kenya","Meso","Mida Creek",39.98,-3.35,"Crustacea","Decapoda","Macrophthalmidae","Macrophthalmus","Macrophthalmus depressus","Inter_M",NA,NA,NA,1,NA,NA,NA,NA,NA,NA,1,NA,NA,NA,NA,NA,NA,0
"226",7.2,"E-Africa","West Indian","Kenya","Meso","Mida Creek",39.98,-3.35,"Crustacea","Decapoda","Macrophthalmidae","Macrophthalmus","Macrophthalmus milloti","Inter_M",NA,NA,NA,1,NA,NA,NA,NA,NA,NA,1,NA,NA,NA,NA,NA,NA,0
"227",7.2,"E-Africa","West Indian","Kenya","Meso","Mida Creek",39.98,-3.35,"Crustacea","Decapoda","Macrophthalmidae","Macrophthalmus","Macrophthalmus parvimanus","Inter_M",NA,NA,NA,1,NA,NA,NA,NA,NA,NA,1,NA,NA,NA,NA,NA,NA,0
"228",7.2,"E-Africa","West Indian","Kenya","Meso","Mida Creek",39.98,-3.35,"Crustacea","Decapoda","Sesarmidae","Neosarmatium","Neosarmatium africanum","Inter_F",NA,1,NA,1,NA,NA,NA,NA,NA,NA,1,NA,NA,NA,1,NA,NA,0
"229",7.2,"E-Africa","West Indian","Kenya","Meso","Mida Creek",39.98,-3.35,"Crustacea","Decapoda","Gecarcinidae","Cardisoma","Cardisoma carnifex","Supra",NA,1,NA,NA,NA,NA,1,NA,NA,NA,1,NA,NA,NA,1,NA,NA,0
"230",7.2,"E-Africa","West Indian","Kenya","Meso","Mida Creek",39.98,3.35,"Mollusca","Bivalvia","Isognomonidae","Isognomon","Isognomon ephippium","Inter_F",NA,NA,NA,NA,1,NA,NA,NA,NA,NA,NA,NA,NA,1,NA,NA,NA,0
"231",7.2,"E-Africa","West Indian","Kenya","Meso","Mida Creek",39.98,-3.35,"Crustacea","Decapoda","Ocypodidae","Cranuca","Cranuca inversa","Inter_F",NA,NA,1,NA,NA,NA,NA,NA,NA,NA,1,NA,NA,NA,NA,1,NA,0
"232",7.2,"E-Africa","West Indian","Kenya","Meso","Mida Creek",39.98,-3.35,"Crustacea","Decapoda","Ocypodidae","Gelasimus","Gelasimus hesperiae","Inter_M",NA,NA,1,NA,NA,NA,NA,NA,NA,NA,1,NA,NA,NA,NA,1,NA,0
"233",7.2,"E-Africa","West Indian","Kenya","Meso","Mida Creek",39.98,3.35,"Mollusca","Gastropoda","Potamididae","Terebralia","Terebralia palustris","Inter_F",NA,1,NA,NA,NA,NA,NA,NA,NA,NA,NA,NA,NA,NA,NA,NA,NA,1
"234",7.2,"E-Africa","West Indian","Kenya","Meso","Mida Creek",39.98,-3.35,"Crustacea","Decapoda","Sesarmidae","Clistocoeloma","Clistocoeloma villosum","Inter_F",NA,NA,NA,1,NA,NA,NA,NA,NA,NA,1,NA,NA,NA,NA,NA,1,0
"235",7.2,"E-Africa","West Indian","Kenya","Meso","Mida Creek",39.98,-3.35,"Crustacea","Decapoda","Oziidae","Epixanthus","Epixanthus dentatus","Inter_F",NA,NA,NA,NA,NA,NA,1,NA,NA,NA,NA,NA,NA,NA,NA,NA,NA,1
"236",7.2,"E-Africa","West Indian","Kenya","Meso","Mida Creek",39.98,3.35,"Mollusca","Gastropoda","Potamididae","Cerithidea","Cerithidea decollata","Inter_F",NA,NA,1,NA,NA,NA,NA,NA,NA,NA,NA,NA,NA,NA,NA,NA,NA,1
"237",7.2,"E-Africa","West Indian","Kenya","Meso","Mida Creek",39.98,-3.35,"Crustacea","Decapoda","Diogenidae","Clibanarius","Clibanarius longitarsus","Inter_M",NA,NA,NA,NA,NA,NA,NA,1,NA,NA,NA,NA,NA,NA,NA,NA,NA,1
"238",7.2,"E-Africa","West Indian","Kenya","Meso","Mida Creek",39.98,3.35,"Mollusca","Bivalvia","Ostreidae","Saccostrea","Saccostrea cuccullata","Inter_F",NA,NA,NA,NA,1,NA,NA,NA,NA,NA,NA,NA,NA,1,NA,NA,NA,0
"239",7.2,"E-Africa","West Indian","Kenya","Meso","Mida Creek",39.98,-3.35,"Crustacea","Decapoda","Ocypodidae","Paraleptuca","Paraleptuca chlorophthalmus","Inter_F",NA,NA,1,NA,NA,NA,NA,NA,NA,NA,1,NA,NA,NA,NA,1,NA,0
"240",7.2,"E-Africa","West Indian","Kenya","Meso","Mida Creek",39.98,-3.35,"Crustacea","Decapoda","Sesarmidae","Sarmatium","Sarmatium crassum","Inter_F",NA,1,NA,1,NA,NA,NA,NA,NA,NA,1,NA,NA,NA,NA,NA,1,0
"241",7.2,"E-Africa","West Indian","Kenya","Meso","Mida Creek",39.98,3.35,"Mollusca","Bivalvia","Teredinidae","Dicyathifer","Dicyathifer mannii","Inter_F",NA,NA,NA,NA,NA,NA,NA,NA,NA,1,NA,NA,1,NA,NA,NA,NA,0
"242",7.2,"E-Africa","West Indian","Kenya","Meso","Mida Creek",39.98,-3.35,"Crustacea","Decapoda","Oziidae","Ozius","Ozius guttatus","Inter_F",NA,NA,NA,NA,NA,NA,1,NA,NA,NA,NA,NA,NA,NA,NA,NA,NA,1
"243",7.2,"E-Africa","West Indian","Kenya","Meso","Mida Creek",39.98,-3.35,"Crustacea","Decapoda","Sesarmidae","Cristarma","Cristarma eulimene","Supra",NA,1,NA,NA,NA,NA,1,NA,NA,NA,1,NA,NA,NA,NA,NA,1,0
"244",7.2,"E-Africa","West Indian","Kenya","Meso","Mida Creek",39.98,-3.35,"Crustacea","Decapoda","Sesarmidae","Cristarma","Cristarma ortmanni","Supra",NA,1,NA,NA,NA,NA,1,NA,NA,NA,1,NA,NA,NA,NA,NA,1,0
"245",7.2,"E-Africa","West Indian","Kenya","Meso","Mida Creek",39.98,-3.35,"Crustacea","Decapoda","Sesarmidae","Parasesarma","Parasesarma guttatum","Inter_F",NA,1,NA,1,NA,NA,NA,NA,NA,NA,NA,NA,NA,NA,NA,NA,1,1
"246",7.2,"E-Africa","West Indian","Kenya","Meso","Mida Creek",39.98,-3.35,"Crustacea","Decapoda","Alpheidae","Alpheus","Alpheus sp. 1","Inter_F",NA,NA,NA,1,NA,NA,NA,NA,NA,NA,1,NA,NA,NA,NA,NA,NA,0
"247",7.2,"E-Africa","West Indian","Kenya","Meso","Mida Creek",39.98,-3.35,"Crustacea","Decapoda","Coenobitidae","Coenobita","Coenobita cavipes","Supra",NA,NA,NA,NA,NA,NA,NA,1,NA,NA,NA,NA,NA,NA,NA,NA,NA,1
"248",7.2,"E-Africa","West Indian","Kenya","Meso","Mida Creek",39.98,-3.35,"Crustacea","Decapoda","Dotillidae","Dotilla","Dotilla fenestrata","Inter_M",NA,NA,1,NA,NA,NA,NA,NA,NA,NA,1,NA,NA,NA,NA,1,NA,0
"249",7.2,"E-Africa","West Indian","Kenya","Meso","Mida Creek",39.98,-3.35,"Crustacea","Decapoda","Grapsidae","Metopograpsus","Metopograpsus messor","Inter_F",NA,NA,NA,NA,NA,1,1,NA,NA,NA,NA,NA,NA,NA,NA,NA,NA,1
"250",7.2,"E-Africa","West Indian","Kenya","Meso","Mida Creek",39.98,-3.35,"Crustacea","Decapoda","Grapsidae","Metopograpsus","Metopograpsus oceanicus","Inter_F",NA,NA,NA,NA,NA,1,1,NA,NA,NA,NA,NA,NA,NA,NA,NA,NA,1
"251",7.2,"E-Africa","West Indian","Kenya","Meso","Mida Creek",39.98,-3.35,"Crustacea","Decapoda","Grapsidae","Metopograpsus","Metopograpsus cannicci","Inter_F",NA,NA,NA,NA,NA,1,1,NA,NA,NA,NA,NA,NA,NA,NA,NA,NA,1
"252",7.2,"E-Africa","West Indian","Kenya","Meso","Mida Creek",39.98,-3.35,"Crustacea","Decapoda","Hippolytidae","Merguia","Merguia oligodon","Inter_F",NA,NA,NA,1,NA,NA,NA,NA,NA,NA,NA,NA,NA,NA,NA,NA,NA,1
"253",7.2,"E-Africa","West Indian","Kenya","Meso","Mida Creek",39.98,3.35,"Mollusca","Gastropoda","Littorinidae","Littoraria","Littoraria pallescens","Inter_F",NA,NA,1,NA,NA,NA,NA,NA,NA,NA,NA,NA,NA,NA,NA,NA,NA,1
"254",7.2,"E-Africa","West Indian","Kenya","Meso","Mida Creek",39.98,3.35,"Mollusca","Gastropoda","Littorinidae","Littoraria","Littoraria scabra","Inter_F",NA,NA,1,NA,NA,NA,NA,NA,NA,NA,NA,NA,NA,NA,NA,NA,NA,1
"255",7.2,"E-Africa","West Indian","Kenya","Meso","Mida Creek",39.98,3.35,"Mollusca","Bivalvia","Lucinidae","Anodontia","Anodontia edentula","Inter_F",NA,NA,NA,NA,1,NA,NA,NA,NA,NA,NA,1,NA,NA,NA,NA,NA,0
"256",7.2,"E-Africa","West Indian","Kenya","Meso","Mida Creek",39.98,3.35,"Mollusca","Bivalvia","Lucinidae","Loripes","Loripes clausus","Inter_F",NA,NA,NA,NA,1,NA,NA,NA,NA,NA,NA,1,NA,NA,NA,NA,NA,0
"257",7.2,"E-Africa","West Indian","Kenya","Meso","Mida Creek",39.98,3.35,"Mollusca","Gastropoda","Melongenidae","Volema","Volema pyrum","Sub",NA,NA,NA,NA,NA,NA,1,NA,NA,NA,NA,NA,NA,NA,NA,NA,NA,1
"258",7.2,"E-Africa","West Indian","Kenya","Meso","Mida Creek",39.98,-3.35,"Crustacea","Decapoda","Ocypodidae","Austruca","Austruca occidentalis","Inter_F",NA,NA,1,NA,NA,NA,NA,NA,NA,NA,1,NA,NA,NA,NA,1,NA,0
"259",7.2,"E-Africa","West Indian","Kenya","Meso","Mida Creek",39.98,-3.35,"Crustacea","Decapoda","Ocypodidae","Tubuca","Tubuca urvillei","Inter_F",NA,NA,1,NA,NA,NA,NA,NA,NA,NA,1,NA,NA,NA,NA,1,NA,0
"260",7.2,"E-Africa","West Indian","Kenya","Meso","Mida Creek",39.98,3.35,"Mollusca","Gastropoda","Onchidiidae","Peronia","Peronia sp. 1","Inter_F",NA,NA,1,NA,NA,NA,NA,NA,NA,NA,NA,NA,NA,NA,NA,NA,NA,1
"261",7.2,"E-Africa","West Indian","Kenya","Meso","Mida Creek",39.98,-3.35,"Crustacea","Decapoda","Pilumnidae","Eurycarcinus","Eurycarcinus natalensis","Inter_F",NA,NA,NA,NA,NA,NA,1,NA,NA,NA,1,NA,NA,NA,NA,NA,NA,0
"262",7.2,"E-Africa","West Indian","Kenya","Meso","Mida Creek",39.98,-3.35,"Crustacea","Decapoda","Porcellanidae","Petrolisthes","Petrolisthes lamarckii","Inter_F",NA,NA,NA,NA,1,NA,NA,NA,NA,NA,NA,NA,NA,NA,NA,NA,NA,1
"263",7.2,"E-Africa","West Indian","Kenya","Meso","Mida Creek",39.98,-3.35,"Crustacea","Decapoda","Portunidae","Scylla","Scylla serrata","Sub",NA,NA,NA,NA,NA,NA,1,NA,NA,NA,1,NA,NA,NA,NA,NA,NA,0
"264",7.2,"E-Africa","West Indian","Kenya","Meso","Mida Creek",39.98,-3.35,"Crustacea","Decapoda","Portunidae","Thalamita","Thalamita crenata","Sub",NA,NA,NA,NA,NA,NA,1,NA,NA,NA,1,NA,NA,NA,NA,NA,NA,0
"265",7.2,"E-Africa","West Indian","Kenya","Meso","Mida Creek",39.98,-3.35,"Crustacea","Decapoda","Sesarmidae","Neosarmatium","Neosarmatium smithi","Inter_F",NA,1,NA,1,NA,NA,NA,NA,NA,NA,1,NA,NA,NA,1,NA,NA,0
"266",7.2,"E-Africa","West Indian","Kenya","Meso","Mida Creek",39.98,-3.35,"Crustacea","Decapoda","Sesarmidae","Leptarma","Leptarma leptosoma","Inter_F",1,NA,NA,NA,NA,NA,NA,NA,NA,NA,1,NA,NA,NA,NA,NA,NA,0
"267",7.2,"E-Africa","West Indian","Kenya","Meso","Mida Creek",39.98,-3.35,"Crustacea","Decapoda","Sesarmidae","Parasesarma","Parasesarma samawati","Inter_F",NA,1,NA,1,NA,NA,NA,NA,NA,NA,NA,NA,NA,NA,NA,NA,1,1
"268",7.2,"E-Africa","West Indian","Kenya","Meso","Mida Creek",39.98,-3.35,"Crustacea","Decapoda","Sesarmidae","Selatium","Selatium brockii","Inter_F",NA,NA,NA,NA,NA,NA,NA,1,NA,NA,NA,NA,NA,NA,NA,NA,NA,1
"269",7.2,"E-Africa","West Indian","Kenya","Meso","Mida Creek",39.98,-3.35,"Crustacea","Decapoda","Sesarmidae","Selatium","Selatium elongatum","Inter_F",NA,NA,NA,NA,NA,NA,NA,1,NA,NA,NA,NA,NA,NA,NA,NA,NA,1
"270",7.2,"E-Africa","West Indian","Kenya","Meso","Mida Creek",39.98,-3.35,"Crustacea","Decapoda","Sesarmidae","Sesarmoides","Sesarmoides longipes","Inter_F",NA,1,NA,1,NA,NA,NA,NA,NA,NA,1,NA,NA,NA,NA,NA,NA,0
"271",7.2,"E-Africa","West Indian","Kenya","Meso","Mida Creek",39.98,-3.35,"Crustacea","Decapoda","Varunidae","Pseudohelice","Pseudohelice subquadrata","Inter_F",NA,1,NA,1,NA,NA,NA,NA,NA,NA,1,NA,NA,NA,NA,NA,1,0
"272",8,"Middle East","Red Sea","Saudi Arabia","Meso","Thuwal",39.5,22.16,"Crustacea","Decapoda","Portunidae","Thalamita","Thalamita crenata","Sub",NA,NA,NA,NA,NA,NA,1,NA,NA,NA,1,NA,NA,NA,NA,NA,NA,0
"273",8,"Middle East","Red Sea","Saudi Arabia","Meso","Thuwal",39.5,22.16,"Crustacea","Decapoda","Ocypodidae","Austruca","Austruca annulipes","Inter_F",NA,NA,1,NA,NA,NA,NA,NA,NA,NA,1,NA,NA,NA,NA,1,NA,0
"274",8,"Middle East","Red Sea","Saudi Arabia","Meso","Thuwal",39.5,22.16,"Crustacea","Decapoda","Ocypodidae","Cranuca","Cranuca inversa","Inter_F",NA,NA,1,NA,NA,NA,NA,NA,NA,NA,1,NA,NA,NA,NA,1,NA,0
"275",8,"Middle East","Red Sea","Saudi Arabia","Meso","Thuwal",39.5,22.16,"Crustacea","Decapoda","Ocypodidae","Ocypode","Ocypode saratan","Inter_F",NA,NA,NA,NA,NA,NA,NA,1,NA,NA,1,NA,NA,NA,NA,NA,NA,0
"276",8,"Middle East","Red Sea","Saudi Arabia","Meso","Thuwal",39.5,22.16,"Crustacea","Decapoda","Macrophthalmidae","Macrophthalmus","Macrophthalmus depressus","Inter_M",NA,NA,NA,1,NA,NA,NA,NA,NA,NA,1,NA,NA,NA,NA,NA,NA,0
"277",8,"Middle East","Red Sea","Saudi Arabia","Meso","Thuwal",39.5,22.16,"Mollusca","Bivalvia","Ostreidae","Saccostrea","Saccostrea cuccullata","Inter_F",NA,NA,NA,NA,1,NA,NA,NA,NA,NA,NA,NA,NA,1,NA,NA,NA,0
"278",8,"Middle East","Red Sea","Saudi Arabia","Meso","Thuwal",39.5,22.16,"Crustacea","Decapoda","Diogenidae","Clibanarius","Clibanarius eurysternus","Inter_M",NA,NA,NA,NA,NA,NA,NA,1,NA,NA,NA,NA,NA,NA,NA,NA,NA,1
"279",8,"Middle East","Red Sea","Saudi Arabia","Meso","Thuwal",39.5,22.16,"Crustacea","Cirripedia","Balanidae","Balanus","Balanus sp.1","Inter_F",NA,NA,NA,NA,1,NA,NA,NA,NA,NA,NA,NA,NA,NA,NA,NA,NA,1
"280",8,"Middle East","Red Sea","Saudi Arabia","Meso","Thuwal",39.5,22.16,"Mollusca","Gastropoda","Littorinidae","Littoraria","Littoraria scabra","Inter_F",NA,NA,1,NA,NA,NA,NA,NA,NA,NA,NA,NA,NA,NA,NA,NA,NA,1
"281",8,"Middle East","Red Sea","Saudi Arabia","Meso","Thuwal",39.5,22.16,"Crustacea","Decapoda","Grapsidae","Metopograpsus","Metopograpsus cannicci","Inter_F",NA,NA,NA,NA,NA,1,1,NA,NA,NA,NA,NA,NA,NA,NA,NA,NA,1
"282",8,"Middle East","Red Sea","Saudi Arabia","Meso","Thuwal",39.5,22.16,"Crustacea","Decapoda","Dotillidae","Dotilla","Dotilla sulcata","Inter_F",NA,NA,1,NA,NA,NA,NA,NA,NA,NA,1,NA,NA,NA,NA,1,NA,0
"283",8,"Middle East","Red Sea","Saudi Arabia","Meso","Thuwal",39.5,22.16,"Crustacea","Decapoda","Grapsidae","Metopograpsus","Metopograpsus messor","Inter_F",NA,NA,NA,NA,NA,1,1,NA,NA,NA,NA,NA,NA,NA,NA,NA,NA,1
"284",9,"Western Indian Ocean","West Indian","Seychelles","Meso","Port Launay",55.47,-4.7,"Crustacea","Decapoda","Ocypodidae","Gelasimus","Gelasimus hesperiae","Inter_M",NA,NA,1,NA,NA,NA,NA,NA,NA,NA,1,NA,NA,NA,NA,1,NA,0
"285",9,"Western Indian Ocean","West Indian","Seychelles","Meso","Port Launay",55.47,-4.7,"Crustacea","Decapoda","Alpheidae","Alpheus","Alpheus sp. 1","Inter_F",NA,NA,NA,1,NA,NA,NA,NA,NA,NA,1,NA,NA,NA,NA,NA,NA,0
"286",9,"Western Indian Ocean","West Indian","Seychelles","Meso","Port Launay",55.47,-4.7,"Mollusca","Gastropoda","Potamididae","Terebralia","Terebralia palustris","Inter_F",NA,1,NA,NA,NA,NA,NA,NA,NA,NA,NA,NA,NA,NA,NA,NA,NA,1
"287",9,"Western Indian Ocean","West Indian","Seychelles","Meso","Port Launay",55.47,-4.7,"Crustacea","Decapoda","Sesarmidae","Neosarmatium","Neosarmatium sp. nov. 1","Inter_F",NA,1,NA,1,NA,NA,NA,NA,NA,NA,1,NA,NA,NA,1,NA,NA,0
"288",9,"Western Indian Ocean","West Indian","Seychelles","Meso","Port Launay",55.47,-4.7,"Crustacea","Decapoda","Sesarmidae","Parasesarma","Parasesarma bengalense","Inter_F",NA,1,NA,1,NA,NA,NA,NA,NA,NA,1,NA,NA,NA,NA,NA,1,0
"289",9,"Western Indian Ocean","West Indian","Seychelles","Meso","Port Launay",55.47,-4.7,"Crustacea","Decapoda","Sesarmidae","Parasesarma","Parasesarma samawati","Inter_F",NA,1,NA,1,NA,NA,NA,NA,NA,NA,NA,NA,NA,NA,NA,NA,1,1
"290",9,"Western Indian Ocean","West Indian","Seychelles","Meso","Port Launay",55.47,-4.7,"Crustacea","Decapoda","Sesarmidae","Neosarmatium","Neosarmatium smithi","Inter_F",NA,1,NA,1,NA,NA,NA,NA,NA,NA,1,NA,NA,NA,1,NA,NA,0
"291",9,"Western Indian Ocean","West Indian","Seychelles","Meso","Port Launay",55.47,-4.7,"Crustacea","Decapoda","Portunidae","Scylla","Scylla serrata","Sub",NA,NA,NA,NA,NA,NA,1,NA,NA,NA,1,NA,NA,NA,NA,NA,NA,0
"292",9,"Western Indian Ocean","West Indian","Seychelles","Meso","Port Launay",55.47,-4.7,"Mollusca","Gastropoda","Potamididae","Cerithidea","Cerithidea decollata","Inter_F",NA,NA,1,NA,NA,NA,NA,NA,NA,NA,NA,NA,NA,NA,NA,NA,NA,1
"293",9,"Western Indian Ocean","West Indian","Seychelles","Meso","Port Launay",55.47,-4.7,"Crustacea","Decapoda","Sesarmidae","Sarmatium","Sarmatium crassum","Inter_F",NA,1,NA,1,NA,NA,NA,NA,NA,NA,1,NA,NA,NA,NA,NA,1,0
"294",9,"Western Indian Ocean","West Indian","Seychelles","Meso","Port Launay",55.47,-4.7,"Crustacea","Decapoda","Diogenidae","Clibanarius","Clibanarius laevimaus","Inter_M",NA,NA,NA,NA,NA,NA,NA,1,NA,NA,NA,NA,NA,NA,NA,NA,NA,1
"295",9,"Western Indian Ocean","West Indian","Seychelles","Meso","Port Launay",55.47,-4.7,"Crustacea","Decapoda","Diogenidae","Clibanarius","Clibanarius longitarsus","Inter_M",NA,NA,NA,NA,NA,NA,NA,1,NA,NA,NA,NA,NA,NA,NA,NA,NA,1
"296",9,"Western Indian Ocean","West Indian","Seychelles","Meso","Port Launay",55.47,-4.7,"Crustacea","Decapoda","Gecarcinidae","Cardisoma","Cardisoma carnifex","Supra",NA,1,NA,NA,NA,NA,1,NA,NA,NA,1,NA,NA,NA,1,NA,NA,0
"297",9,"Western Indian Ocean","West Indian","Seychelles","Meso","Port Launay",55.47,-4.7,"Crustacea","Decapoda","Grapsidae","Metopograpsus","Metopograpsus cannicci","Inter_F",NA,NA,NA,NA,NA,1,1,NA,NA,NA,NA,NA,NA,NA,NA,NA,NA,1
"298",9,"Western Indian Ocean","West Indian","Seychelles","Meso","Port Launay",55.47,-4.7,"Mollusca","Gastropoda","Littorinidae","Littoraria","Littoraria intermedia","Inter_F",NA,NA,1,NA,NA,NA,NA,NA,NA,NA,NA,NA,NA,NA,NA,NA,NA,1
"299",9,"Western Indian Ocean","West Indian","Seychelles","Meso","Port Launay",55.47,-4.7,"Crustacea","Decapoda","Ocypodidae","Austruca","Austruca annulipes","Supra",NA,NA,1,NA,NA,NA,NA,NA,NA,NA,1,NA,NA,NA,NA,1,NA,0
"300",9,"Western Indian Ocean","West Indian","Seychelles","Meso","Port Launay",55.47,-4.7,"Crustacea","Decapoda","Ocypodidae","Paraleptuca","Paraleptuca chlorophthalmus","Inter_F",NA,NA,1,NA,NA,NA,NA,NA,NA,NA,1,NA,NA,NA,NA,1,NA,0
"301",9,"Western Indian Ocean","West Indian","Seychelles","Meso","Port Launay",55.47,-4.7,"Crustacea","Decapoda","Portunidae","Thalamita","Thalamita crenata","Sub",NA,NA,NA,NA,NA,NA,1,NA,NA,NA,1,NA,NA,NA,NA,NA,NA,0
"302",9,"Western Indian Ocean","West Indian","Seychelles","Meso","Port Launay",55.47,-4.7,"Crustacea","Decapoda","Sesarmidae","Neosarmatium","Neosarmatium meinerti","Inter_F",NA,1,NA,1,NA,NA,NA,NA,NA,NA,1,NA,NA,NA,1,NA,NA,0
"303",9,"Western Indian Ocean","West Indian","Seychelles","Meso","Port Launay",55.47,-4.7,"Crustacea","Decapoda","Varunidae","Pseudohelice","Pseudohelice subquadrata","Inter_F",NA,1,NA,1,NA,NA,NA,NA,NA,NA,1,NA,NA,NA,NA,NA,1,0
"304",10,"S-Asia","Indo West Pacific","Sri-Lanka","Micro","Galle",80.2503204,6.0282379,"Mollusca","Gastropoda","Littorinidae","Littoraria","Littoraria undulata","Inter_F",NA,NA,1,NA,NA,NA,NA,NA,NA,NA,NA,NA,NA,NA,NA,NA,NA,1
"305",10,"S-Asia","Indo West Pacific","Sri-Lanka","Micro","Galle",80.2503204,6.0282379,"Crustacea","Decapoda","Ocypodidae","Austruca","Austruca lactea","Inter_M",NA,NA,1,NA,NA,NA,NA,NA,NA,NA,1,NA,NA,NA,NA,1,NA,0
"306",10,"S-Asia","Indo West Pacific","Sri-Lanka","Micro","Galle",80.2503204,6.0282379,"Mollusca","Gastropoda","Potamididae","Terebralia","Terebralia palustris","Inter_F",NA,1,NA,NA,NA,NA,NA,NA,NA,NA,NA,NA,NA,NA,NA,NA,NA,1
"307",10,"S-Asia","Indo West Pacific","Sri-Lanka","Micro","Galle",80.2503204,6.0282379,"Crustacea","Decapoda","Sesarmidae","Muradium","Muradium tetragonum","Inter_F",NA,1,NA,1,NA,NA,NA,NA,NA,NA,1,NA,NA,NA,1,NA,NA,0
"308",10,"S-Asia","Indo West Pacific","Sri-Lanka","Micro","Galle",80.2503204,6.0282379,"Crustacea","Decapoda","Sesarmidae","Pseudosesarma","Pseudosesarma crassimanum","Inter_F",NA,1,NA,1,NA,NA,NA,NA,NA,NA,NA,NA,NA,NA,NA,NA,1,1
"309",10,"S-Asia","Indo West Pacific","Sri-Lanka","Micro","Galle",80.2503204,6.0282379,"Crustacea","Decapoda","Sesarmidae","Selatium","Selatium brockii","Inter_F",NA,NA,NA,NA,NA,NA,NA,1,NA,NA,NA,NA,NA,NA,NA,NA,NA,1
"310",10,"S-Asia","Indo West Pacific","Sri-Lanka","Micro","Galle",80.2503204,6.0282379,"Crustacea","Decapoda","Macrophthalmidae","Macrophthalmus","Macrophthalmus sp. 1","Inter_F",NA,NA,NA,1,NA,NA,NA,NA,NA,NA,1,NA,NA,NA,NA,NA,NA,0
"311",10,"S-Asia","Indo West Pacific","Sri-Lanka","Micro","Galle",80.2503204,6.0282379,"Crustacea","Decapoda","Thalassinidae","Thalassina","Thalassina anomala","Inter_F",NA,NA,NA,NA,1,NA,NA,NA,NA,NA,1,NA,NA,NA,NA,NA,NA,0
"312",10,"S-Asia","Indo West Pacific","Sri-Lanka","Micro","Galle",80.2503204,6.0282379,"Crustacea","Decapoda","Gecarcinidae","Cardisoma","Cardisoma carnifex","Supra",NA,1,NA,NA,NA,NA,1,NA,NA,NA,1,NA,NA,NA,1,NA,NA,0
"313",10,"S-Asia","Indo West Pacific","Sri-Lanka","Micro","Galle",80.2503204,6.0282379,"Crustacea","Decapoda","Sesarmidae","Neosarmatium","Neosarmatium asiaticum","Inter_F",NA,1,NA,1,NA,NA,NA,NA,NA,NA,1,NA,NA,NA,1,NA,NA,0
"314",10,"S-Asia","Indo West Pacific","Sri-Lanka","Micro","Galle",80.2503204,6.0282379,"Crustacea","Decapoda","Sesarmidae","Neosarmatium","Neosarmatium malabaricum","Inter_F",NA,1,NA,1,NA,NA,NA,NA,NA,NA,1,NA,NA,NA,1,NA,NA,0
"315",10,"S-Asia","Indo West Pacific","Sri-Lanka","Micro","Galle",80.2503204,6.0282379,"Crustacea","Decapoda","Sesarmidae","Neosarmatium","Neosarmatium smithi","Inter_F",NA,1,NA,1,NA,NA,NA,NA,NA,NA,1,NA,NA,NA,1,NA,NA,0
"316",10,"S-Asia","Indo West Pacific","Sri-Lanka","Micro","Galle",80.2503204,6.0282379,"Crustacea","Decapoda","Sesarmidae","Parasesarma","Parasesarma affine","Inter_F",NA,1,NA,1,NA,NA,NA,NA,NA,NA,1,NA,NA,NA,NA,NA,1,0
"317",10,"S-Asia","Indo West Pacific","Sri-Lanka","Micro","Galle",80.2503204,6.0282379,"Crustacea","Decapoda","Sesarmidae","Parasesarma","Parasesarma bengalense","Inter_F",NA,1,NA,1,NA,NA,NA,NA,NA,NA,1,NA,NA,NA,NA,NA,1,0
"318",10,"S-Asia","Indo West Pacific","Sri-Lanka","Micro","Galle",80.2503204,6.0282379,"Crustacea","Decapoda","Sesarmidae","Leptarma","Leptarma leptosoma","Inter_F",1,NA,NA,NA,NA,NA,NA,NA,NA,NA,1,NA,NA,NA,NA,NA,NA,0
"319",10,"S-Asia","Indo West Pacific","Sri-Lanka","Micro","Galle",80.2503204,6.0282379,"Crustacea","Decapoda","Sesarmidae","Parasesarma","Parasesarma onycophorum","Inter_F",NA,1,NA,1,NA,NA,NA,NA,NA,NA,1,NA,NA,NA,NA,NA,1,0
"320",10,"S-Asia","Indo West Pacific","Sri-Lanka","Micro","Galle",80.2503204,6.0282379,"Crustacea","Decapoda","Sesarmidae","Perisesarma","Perisesarma dussumieri","Inter_F",NA,1,NA,1,NA,NA,NA,NA,NA,NA,NA,NA,NA,NA,NA,NA,1,1
"321",11,"SE-Asia","Indo West Pacific","Indonesia","Meso","Segara Anakan",108.89,-7.71,"Mollusca","Gastropoda","Assimineidae","Optediceros","Optediceros breviculum","Inter_F",NA,NA,NA,1,NA,NA,NA,NA,NA,NA,NA,NA,NA,NA,NA,NA,NA,1
"322",11,"SE-Asia","Indo West Pacific","Indonesia","Meso","Segara Anakan",108.89,-7.71,"Mollusca","Bivalvia","Pharidae","Pharella","Pharella acutidens","Inter_F",NA,NA,NA,NA,1,NA,NA,NA,NA,NA,NA,1,NA,NA,NA,NA,NA,0
"323",11,"SE-Asia","Indo West Pacific","Indonesia","Meso","Segara Anakan",108.89,-7.71,"Crustacea","Decapoda","Portunidae","Thalamita","Thalamita danae","Sub",NA,NA,NA,NA,NA,NA,1,NA,NA,NA,1,NA,NA,NA,NA,NA,NA,0
"324",11,"SE-Asia","Indo West Pacific","Indonesia","Meso","Segara Anakan",108.89,-7.71,"Crustacea","Decapoda","Varunidae","Metaplax","Metaplax elegans","Inter_F",NA,NA,NA,1,NA,NA,NA,NA,NA,NA,1,NA,NA,NA,NA,NA,NA,0
"325",11,"SE-Asia","Indo West Pacific","Indonesia","Meso","Segara Anakan",108.89,-7.71,"Crustacea","Decapoda","Camptandriidae","Moguai","Moguai elongatum","Inter_F",NA,NA,NA,1,NA,NA,NA,NA,NA,NA,NA,NA,NA,NA,NA,NA,1,1
"326",11,"SE-Asia","Indo West Pacific","Indonesia","Meso","Segara Anakan",108.89,-7.71,"Crustacea","Decapoda","Camptandriidae","Paracleistostoma","Paracleistostoma laciniatum","Inter_F",NA,NA,NA,NA,NA,NA,NA,1,NA,NA,1,NA,NA,NA,NA,NA,1,0
"327",11,"SE-Asia","Indo West Pacific","Indonesia","Meso","Segara Anakan",108.89,-7.71,"Crustacea","Decapoda","Dotillidae","Scopimera","Scopimera sp. 1","Inter_F",NA,NA,1,NA,NA,NA,NA,NA,NA,NA,1,NA,NA,NA,NA,1,NA,0
"328",11,"SE-Asia","Indo West Pacific","Indonesia","Meso","Segara Anakan",108.89,-7.71,"Crustacea","Decapoda","Dotillidae","Scopimera","Scopimera intermedia","Inter_F",NA,NA,1,NA,NA,NA,NA,NA,NA,NA,1,NA,NA,NA,NA,1,NA,0
"329",11,"SE-Asia","Indo West Pacific","Indonesia","Meso","Segara Anakan",108.89,-7.71,"Mollusca","Gastropoda","Ellobiidae","Cassidula","Cassidula nucleus","Inter_F",NA,NA,1,NA,NA,NA,NA,NA,NA,NA,NA,NA,NA,NA,NA,NA,NA,1
"330",11,"SE-Asia","Indo West Pacific","Indonesia","Meso","Segara Anakan",108.89,-7.71,"Crustacea","Decapoda","Gecarcinidae","Cardisoma","Cardisoma carnifex","Supra",NA,1,NA,NA,NA,NA,1,NA,NA,NA,1,NA,NA,NA,1,NA,NA,0
"331",11,"SE-Asia","Indo West Pacific","Indonesia","Meso","Segara Anakan",108.89,-7.71,"Crustacea","Decapoda","Grapsidae","Metopograpsus","Metopograpsus frontalis","Inter_F",NA,NA,NA,NA,NA,1,1,NA,NA,NA,NA,NA,NA,NA,NA,NA,NA,1
"332",11,"SE-Asia","Indo West Pacific","Indonesia","Meso","Segara Anakan",108.89,-7.71,"Crustacea","Decapoda","Grapsidae","Metopograpsus","Metopograpsus latifrons","Inter_F",NA,NA,NA,NA,NA,1,1,NA,NA,NA,NA,NA,NA,NA,NA,NA,NA,1
"333",11,"SE-Asia","Indo West Pacific","Indonesia","Meso","Segara Anakan",108.89,-7.71,"Mollusca","Gastropoda","Littorinidae","Littoraria","Littoraria cf. carinifera","Inter_F",NA,NA,1,NA,NA,NA,NA,NA,NA,NA,NA,NA,NA,NA,NA,NA,NA,1
"334",11,"SE-Asia","Indo West Pacific","Indonesia","Meso","Segara Anakan",108.89,-7.71,"Mollusca","Gastropoda","Littorinidae","Littoraria","Littoraria cf. intermedia / pallescens","Inter_F",NA,NA,1,NA,NA,NA,NA,NA,NA,NA,NA,NA,NA,NA,NA,NA,NA,1
"335",11,"SE-Asia","Indo West Pacific","Indonesia","Meso","Segara Anakan",108.89,-7.71,"Crustacea","Decapoda","Macrophthalmidae","Ilyograpsus","Ilyograpsus paludicola","Inter_F",NA,NA,NA,1,NA,NA,NA,NA,NA,NA,1,NA,NA,NA,NA,NA,NA,0
"336",11,"SE-Asia","Indo West Pacific","Indonesia","Meso","Segara Anakan",108.89,-7.71,"Mollusca","Gastropoda","Neritidae","Neripteron","Neripteron violaceum","Inter_F",NA,NA,1,NA,NA,NA,NA,NA,NA,NA,NA,NA,NA,NA,NA,NA,NA,1
"337",11,"SE-Asia","Indo West Pacific","Indonesia","Meso","Segara Anakan",108.89,-7.71,"Crustacea","Decapoda","Ocypodidae","Tubuca","Tubuca bellator","Inter_F",NA,NA,1,NA,NA,NA,NA,NA,NA,NA,1,NA,NA,NA,NA,1,NA,0
"338",11,"SE-Asia","Indo West Pacific","Indonesia","Meso","Segara Anakan",108.89,-7.71,"Crustacea","Decapoda","Ocypodidae","Tubuca","Tubuca coarctata","Inter_F",NA,NA,1,NA,NA,NA,NA,NA,NA,NA,1,NA,NA,NA,NA,1,NA,0
"339",11,"SE-Asia","Indo West Pacific","Indonesia","Meso","Segara Anakan",108.89,-7.71,"Mollusca","Bivalvia","Ostreidae","Saccostrea","Saccostrea cf. cuccullata","Inter_F",NA,NA,NA,NA,1,NA,NA,NA,NA,NA,NA,NA,NA,1,NA,NA,NA,0
"340",11,"SE-Asia","Indo West Pacific","Indonesia","Meso","Segara Anakan",108.89,-7.71,"Crustacea","Decapoda","Portunidae","Scylla","Scylla serrata","Sub",NA,NA,NA,NA,NA,NA,1,NA,NA,NA,1,NA,NA,NA,NA,NA,NA,0
"341",11,"SE-Asia","Indo West Pacific","Indonesia","Meso","Segara Anakan",108.89,-7.71,"Mollusca","Gastropoda","Potamididae","Cerithidea","Cerithidea quoyii","Inter_F",NA,NA,1,NA,NA,NA,NA,NA,NA,NA,NA,NA,NA,NA,NA,NA,NA,1
"342",11,"SE-Asia","Indo West Pacific","Indonesia","Meso","Segara Anakan",108.89,-7.71,"Crustacea","Decapoda","Sesarmidae","Chiromanthes","Chiromanthes sp. 2","Inter_F",NA,1,NA,NA,NA,NA,NA,NA,NA,NA,1,NA,NA,NA,NA,NA,1,0
"343",11,"SE-Asia","Indo West Pacific","Indonesia","Meso","Segara Anakan",108.89,-7.71,"Crustacea","Decapoda","Sesarmidae","Episesarma","Episesarma palawanense","Inter_F",NA,1,NA,1,NA,NA,NA,NA,NA,NA,1,NA,NA,NA,1,NA,NA,0
"344",11,"SE-Asia","Indo West Pacific","Indonesia","Meso","Segara Anakan",108.89,-7.71,"Crustacea","Decapoda","Sesarmidae","Neosarmatium","Neosarmatium cf. bidentatum","Inter_F",NA,1,NA,1,NA,NA,NA,NA,NA,NA,1,NA,NA,NA,1,NA,NA,0
"345",11,"SE-Asia","Indo West Pacific","Indonesia","Meso","Segara Anakan",108.89,-7.71,"Crustacea","Decapoda","Sesarmidae","Parasesarma","Parasesarma sp. 2","Inter_F",NA,NA,NA,NA,NA,NA,NA,NA,NA,NA,NA,NA,NA,NA,NA,NA,1,1
"346",11,"SE-Asia","Indo West Pacific","Indonesia","Meso","Segara Anakan",108.89,-7.71,"Crustacea","Decapoda","Sesarmidae","Parasesarma","Parasesarma darwinense","Inter_F",NA,1,NA,1,NA,NA,NA,NA,NA,NA,1,NA,NA,NA,NA,NA,1,0
"347",11,"SE-Asia","Indo West Pacific","Indonesia","Meso","Segara Anakan",108.89,-7.71,"Crustacea","Decapoda","Sesarmidae","Parasesarma","Parasesarma maipoense","Inter_F",NA,1,NA,1,NA,NA,NA,NA,NA,NA,1,NA,NA,NA,NA,NA,1,0
"348",11,"SE-Asia","Indo West Pacific","Indonesia","Meso","Segara Anakan",108.89,-7.71,"Crustacea","Decapoda","Sesarmidae","Bresedium","Bresedium cf. laevimanum","Inter_F",NA,NA,NA,NA,NA,NA,NA,NA,NA,NA,NA,NA,NA,NA,NA,NA,NA,1
"349",11,"SE-Asia","Indo West Pacific","Indonesia","Meso","Segara Anakan",108.89,-7.71,"Crustacea","Decapoda","Sesarmidae","Sarmatium","Sarmatium germaini","Inter_F",NA,1,NA,1,NA,NA,NA,NA,NA,NA,1,NA,NA,NA,1,NA,NA,0
"350",11,"SE-Asia","Indo West Pacific","Indonesia","Meso","Segara Anakan",108.89,-7.71,"Crustacea","Decapoda","Varunidae","Varuna","Varuna yui","Inter_F",NA,NA,NA,NA,NA,NA,NA,1,NA,NA,NA,NA,NA,NA,NA,NA,1,1
"351",11,"SE-Asia","Indo West Pacific","Indonesia","Meso","Segara Anakan",108.89,-7.71,"Mollusca","Gastropoda","Littorinidae","Littoraria","Littoraria sp. 1","Inter_F",NA,NA,1,NA,NA,NA,NA,NA,NA,NA,NA,NA,NA,NA,NA,NA,NA,1
"352",11,"SE-Asia","Indo West Pacific","Indonesia","Meso","Segara Anakan",108.89,-7.71,"Mollusca","Gastropoda","Neritidae","Nerita","Nerita balteata","Inter_F",NA,NA,1,NA,NA,NA,NA,NA,NA,NA,NA,NA,NA,NA,NA,NA,NA,1
"353",11,"SE-Asia","Indo West Pacific","Indonesia","Meso","Segara Anakan",108.89,-7.71,"Crustacea","Decapoda","Ocypodidae","Tubuca","Tubuca paradussumieri","Inter_F",NA,NA,1,NA,NA,NA,NA,NA,NA,NA,1,NA,NA,NA,NA,1,NA,0
"354",11,"SE-Asia","Indo West Pacific","Indonesia","Meso","Segara Anakan",108.89,-7.71,"Crustacea","Decapoda","Sesarmidae","Episesarma","Episesarma mederi","Inter_F",NA,1,NA,1,NA,NA,NA,NA,NA,NA,1,NA,NA,NA,1,NA,NA,0
"355",11,"SE-Asia","Indo West Pacific","Indonesia","Meso","Segara Anakan",108.89,-7.71,"Crustacea","Decapoda","Sesarmidae","Neosarmatium","Neosarmatium laeve","Inter_F",NA,1,NA,1,NA,NA,NA,NA,NA,NA,1,NA,NA,NA,1,NA,NA,0
"356",11,"SE-Asia","Indo West Pacific","Indonesia","Meso","Segara Anakan",108.89,-7.71,"Crustacea","Decapoda","Sesarmidae","Parasesarma","Parasesarma sp. 4","Inter_F",NA,NA,NA,NA,NA,NA,NA,NA,NA,NA,NA,NA,NA,NA,NA,NA,1,1
"357",11,"SE-Asia","Indo West Pacific","Indonesia","Meso","Segara Anakan",108.89,-7.71,"Mollusca","Gastropoda","Ampullariidae","Pomacea","Pomacea canaliculata","Inter_F",NA,1,NA,1,NA,NA,NA,NA,NA,NA,NA,NA,NA,NA,NA,NA,NA,1
"358",11,"SE-Asia","Indo West Pacific","Indonesia","Meso","Segara Anakan",108.89,-7.71,"Crustacea","Decapoda","Ocypodidae","Tubuca","Tubuca forcipata","Inter_F",NA,NA,1,NA,NA,NA,NA,NA,NA,NA,1,NA,NA,NA,NA,1,NA,0
"359",11,"SE-Asia","Indo West Pacific","Indonesia","Meso","Segara Anakan",108.89,-7.71,"Crustacea","Decapoda","Oziidae","Epixanthus","Epixanthus dentatus","Inter_F",NA,NA,NA,NA,NA,NA,1,NA,NA,NA,NA,NA,NA,NA,NA,NA,NA,1
"360",11,"SE-Asia","Indo West Pacific","Indonesia","Meso","Segara Anakan",108.89,-7.71,"Crustacea","Decapoda","Sesarmidae","Neosarmatium","Neosarmatium sp. 1","Inter_F",NA,1,NA,1,NA,NA,NA,NA,NA,NA,1,NA,NA,NA,1,NA,NA,0
"361",11,"SE-Asia","Indo West Pacific","Indonesia","Meso","Segara Anakan",108.89,-7.71,"Crustacea","Decapoda","Sesarmidae","Parasesarma","Parasesarma sp. 3","Inter_F",NA,NA,NA,NA,NA,NA,NA,NA,NA,NA,NA,NA,NA,NA,NA,NA,1,1
"362",11,"SE-Asia","Indo West Pacific","Indonesia","Meso","Segara Anakan",108.89,-7.71,"Crustacea","Decapoda","Ocypodidae","Austruca","Austruca annulipes","Inter_F",NA,NA,1,NA,NA,NA,NA,NA,NA,NA,1,NA,NA,NA,NA,1,NA,0
"363",11,"SE-Asia","Indo West Pacific","Indonesia","Meso","Segara Anakan",108.89,-7.71,"Crustacea","Decapoda","Sesarmidae","Clistocoeloma","Clistocoeloma merguiense","Inter_F",NA,NA,NA,1,NA,NA,NA,NA,NA,NA,1,NA,NA,NA,NA,NA,1,0
"364",11,"SE-Asia","Indo West Pacific","Indonesia","Meso","Segara Anakan",108.89,-7.71,"Mollusca","Gastropoda","Neritidae","Nerita","Nerita sp. 1","Inter_F",NA,NA,1,NA,NA,NA,NA,NA,NA,NA,NA,NA,NA,NA,NA,NA,NA,1
"365",11,"SE-Asia","Indo West Pacific","Indonesia","Meso","Segara Anakan",108.89,-7.71,"Crustacea","Decapoda","Sesarmidae","Orisarma","Orisarma sp. 1","Inter_F",NA,1,NA,NA,NA,NA,NA,NA,NA,NA,1,NA,NA,NA,NA,NA,1,0
"366",11,"SE-Asia","Indo West Pacific","Indonesia","Meso","Segara Anakan",108.89,-7.71,"Mollusca","Gastropoda","Assimineidae","Taiwanassiminea","Taiwanassiminea javana","Inter_F",NA,NA,NA,1,NA,NA,NA,NA,NA,NA,NA,NA,NA,NA,NA,NA,NA,1
"367",11,"SE-Asia","Indo West Pacific","Indonesia","Meso","Segara Anakan",108.89,-7.71,"Crustacea","Decapoda","Camptandriidae","Baruna","Baruna trigranulum","Inter_F",NA,NA,NA,1,NA,NA,NA,NA,NA,NA,1,NA,NA,NA,NA,NA,1,0
"368",11,"SE-Asia","Indo West Pacific","Indonesia","Meso","Segara Anakan",108.89,-7.71,"Mollusca","Bivalvia","Cyrenidae ","Corbicula","Corbicula sp. 1","Inter_F",NA,NA,NA,NA,1,NA,NA,NA,NA,NA,NA,1,NA,NA,NA,NA,NA,0
"369",11,"SE-Asia","Indo West Pacific","Indonesia","Meso","Segara Anakan",108.89,-7.71,"Mollusca","Bivalvia","Cyrenidae ","Geloina","Geloina expansa","Inter_F",NA,NA,NA,NA,1,NA,NA,NA,NA,NA,NA,1,NA,NA,NA,NA,NA,0
"370",11,"SE-Asia","Indo West Pacific","Indonesia","Meso","Segara Anakan",108.89,-7.71,"Crustacea","Decapoda","Dotillidae","Ilyoplax","Ilyoplax strigicarpus","Inter_F",NA,NA,1,NA,NA,NA,NA,NA,NA,NA,1,NA,NA,NA,NA,1,NA,0
"371",11,"SE-Asia","Indo West Pacific","Indonesia","Meso","Segara Anakan",108.89,-7.71,"Crustacea","Decapoda","Dotillidae","Pseudogelasimus","Pseudogelasimus sp. 1","Inter_F",NA,NA,1,NA,NA,NA,NA,NA,NA,NA,1,NA,NA,NA,NA,1,NA,0
"372",11,"SE-Asia","Indo West Pacific","Indonesia","Meso","Segara Anakan",108.89,-7.71,"Crustacea","Decapoda","Dotillidae","Tmethypocoelis","Tmethypocoelis cf. odontodactylus","Inter_F",NA,NA,1,NA,NA,NA,NA,NA,NA,NA,1,NA,NA,NA,NA,1,NA,0
"373",11,"SE-Asia","Indo West Pacific","Indonesia","Meso","Segara Anakan",108.89,-7.71,"Crustacea","Decapoda","Dotillidae","Tmethypocoelis","Tmethypocoelis sp. 1","Inter_F",NA,NA,1,NA,NA,NA,NA,NA,NA,NA,1,NA,NA,NA,NA,1,NA,0
"374",11,"SE-Asia","Indo West Pacific","Indonesia","Meso","Segara Anakan",108.89,-7.71,"Mollusca","Gastropoda","Ellobiidae","Cassidula","Cassidula cf. aurisfelis","Inter_F",NA,NA,1,NA,NA,NA,NA,NA,NA,NA,NA,NA,NA,NA,NA,NA,NA,1
"375",11,"SE-Asia","Indo West Pacific","Indonesia","Meso","Segara Anakan",108.89,-7.71,"Mollusca","Gastropoda","Ellobiidae","Auriculastra","Auriculastra sp. 1","Inter_F",NA,NA,1,NA,NA,NA,NA,NA,NA,NA,NA,NA,NA,NA,NA,NA,NA,1
"376",11,"SE-Asia","Indo West Pacific","Indonesia","Meso","Segara Anakan",108.89,-7.71,"Mollusca","Gastropoda","Ellobiidae","Auriculastra","Auriculastra sp. 1","Inter_F",NA,NA,1,NA,NA,NA,NA,NA,NA,NA,NA,NA,NA,NA,NA,NA,NA,1
"377",11,"SE-Asia","Indo West Pacific","Indonesia","Meso","Segara Anakan",108.89,-7.71,"Mollusca","Gastropoda","Ellobiidae","Auriculastra","Auriculastra sp. 1","Inter_F",NA,NA,1,NA,NA,NA,NA,NA,NA,NA,NA,NA,NA,NA,NA,NA,NA,1
"378",11,"SE-Asia","Indo West Pacific","Indonesia","Meso","Segara Anakan",108.89,-7.71,"Mollusca","Gastropoda","Ellobiidae","Laemodonta","Laemodonta siamensis","Inter_F",NA,NA,1,NA,NA,NA,NA,NA,NA,NA,NA,NA,NA,NA,NA,NA,NA,1
"379",11,"SE-Asia","Indo West Pacific","Indonesia","Meso","Segara Anakan",108.89,-7.71,"Mollusca","Gastropoda","Ellobiidae","Laemodonta","Laemodonta cf. monilifera","Inter_F",NA,NA,1,NA,NA,NA,NA,NA,NA,NA,NA,NA,NA,NA,NA,NA,NA,1
"380",11,"SE-Asia","Indo West Pacific","Indonesia","Meso","Segara Anakan",108.89,-7.71,"Mollusca","Gastropoda","Ellobiidae","Laemodonta","Laemodonta sp. 1","Inter_F",NA,NA,1,NA,NA,NA,NA,NA,NA,NA,NA,NA,NA,NA,NA,NA,NA,1
"381",11,"SE-Asia","Indo West Pacific","Indonesia","Meso","Segara Anakan",108.89,-7.71,"Mollusca","Gastropoda","Ellobiidae","Melampus","Melampus sp. 1","Inter_F",NA,1,NA,1,NA,NA,NA,NA,NA,NA,NA,NA,NA,NA,NA,NA,NA,1
"382",11,"SE-Asia","Indo West Pacific","Indonesia","Meso","Segara Anakan",108.89,-7.71,"Mollusca","Bivalvia","Glauconomidae","Glauconome","Glauconome curta","Inter_F",NA,NA,NA,NA,1,NA,NA,NA,NA,NA,NA,1,NA,NA,NA,NA,NA,0
"383",11,"SE-Asia","Indo West Pacific","Indonesia","Meso","Segara Anakan",108.89,-7.71,"Mollusca","Bivalvia","Isognomonidae","Isognomon","Isognomon cf. ephippium","Inter_F",NA,NA,NA,NA,1,NA,NA,NA,NA,NA,NA,NA,NA,1,NA,NA,NA,0
"384",11,"SE-Asia","Indo West Pacific","Indonesia","Meso","Segara Anakan",108.89,-7.71,"Crustacea","Decapoda","Macrophthalmidae","Macrophthalmus","Macrophthalmus pacificus","Inter_F",NA,NA,NA,1,NA,NA,NA,NA,NA,NA,1,NA,NA,NA,NA,NA,NA,0
"385",11,"SE-Asia","Indo West Pacific","Indonesia","Meso","Segara Anakan",108.89,-7.71,"Crustacea","Decapoda","Macrophthalmidae","Macrophthalmus","Macrophthalmus quadratus","Inter_F",NA,NA,NA,1,NA,NA,NA,NA,NA,NA,1,NA,NA,NA,NA,NA,NA,0
"386",11,"SE-Asia","Indo West Pacific","Indonesia","Meso","Segara Anakan",108.89,-7.71,"Mollusca","Gastropoda","Muricidae","Chicoreus","Chicoreus capucinus","Inter_F",NA,NA,NA,NA,NA,NA,1,NA,NA,NA,NA,NA,NA,NA,NA,NA,NA,1
"387",11,"SE-Asia","Indo West Pacific","Indonesia","Meso","Segara Anakan",108.89,-7.71,"Mollusca","Gastropoda","Muricidae","Semiricinula","Semiricinula cf. fusca","Inter_F",NA,NA,NA,NA,NA,NA,1,NA,NA,NA,NA,NA,NA,NA,NA,NA,NA,1
"388",11,"SE-Asia","Indo West Pacific","Indonesia","Meso","Segara Anakan",108.89,-7.71,"Mollusca","Bivalvia","Mytilidae","Arcuatula","Arcuatula senhousia","Inter_F",NA,NA,NA,NA,1,NA,NA,NA,NA,NA,NA,NA,NA,1,NA,NA,NA,0
"389",11,"SE-Asia","Indo West Pacific","Indonesia","Meso","Segara Anakan",108.89,-7.71,"Mollusca","Bivalvia","Tellinidae","Tellina","Tellina sp. 1","Inter_F",NA,NA,NA,NA,1,NA,NA,NA,NA,NA,NA,NA,NA,1,NA,NA,NA,0
"390",11,"SE-Asia","Indo West Pacific","Indonesia","Meso","Segara Anakan",108.89,-7.71,"Mollusca","Gastropoda","Nassariidae","Nassarius","Nassarius olivaceus","Inter_F",NA,NA,NA,NA,NA,NA,NA,NA,1,NA,NA,NA,NA,NA,NA,NA,NA,1
"391",11,"SE-Asia","Indo West Pacific","Indonesia","Meso","Segara Anakan",108.89,-7.71,"Mollusca","Gastropoda","Neritidae","Clithon","Clithon bicolor","Inter_F",NA,NA,NA,1,NA,NA,NA,NA,NA,NA,NA,NA,NA,NA,NA,NA,NA,1
"392",11,"SE-Asia","Indo West Pacific","Indonesia","Meso","Segara Anakan",108.89,-7.71,"Mollusca","Gastropoda","Neritidae","Clithon","Clithon oualaniense","Inter_F",NA,NA,NA,1,NA,NA,NA,NA,NA,NA,NA,NA,NA,NA,NA,NA,NA,1
"393",11,"SE-Asia","Indo West Pacific","Indonesia","Meso","Segara Anakan",108.89,-7.71,"Mollusca","Gastropoda","Neritidae","Vittina","Vittina turrita","Inter_F",NA,NA,1,NA,NA,NA,NA,NA,NA,NA,NA,NA,NA,NA,NA,NA,NA,1
"394",11,"SE-Asia","Indo West Pacific","Indonesia","Meso","Segara Anakan",108.89,-7.71,"Mollusca","Gastropoda","Neritidae","Neritodryas","Neritodryas sp. 1","Inter_F",NA,NA,1,NA,NA,NA,NA,NA,NA,NA,NA,NA,NA,NA,NA,NA,NA,1
"395",11,"SE-Asia","Indo West Pacific","Indonesia","Meso","Segara Anakan",108.89,-7.71,"Mollusca","Gastropoda","Neritidae","Vittina","Vittina waigiensis","Inter_F",NA,NA,1,NA,NA,NA,NA,NA,NA,NA,NA,NA,NA,NA,NA,NA,NA,1
"396",11,"SE-Asia","Indo West Pacific","Indonesia","Meso","Segara Anakan",108.89,-7.71,"Mollusca","Gastropoda","Neritidae","Vittina","Vittina zigzag","Inter_F",NA,NA,1,NA,NA,NA,NA,NA,NA,NA,NA,NA,NA,NA,NA,NA,NA,1
"397",11,"SE-Asia","Indo West Pacific","Indonesia","Meso","Segara Anakan",108.89,-7.71,"Crustacea","Decapoda","Ocypodidae","Austruca","Austruca perplexa","Inter_F",NA,NA,1,NA,NA,NA,NA,NA,NA,NA,1,NA,NA,NA,NA,1,NA,0
"398",11,"SE-Asia","Indo West Pacific","Indonesia","Meso","Segara Anakan",108.89,-7.71,"Crustacea","Decapoda","Ocypodidae","Austruca","Austruca triangularis","Inter_F",NA,NA,1,NA,NA,NA,NA,NA,NA,NA,1,NA,NA,NA,NA,1,NA,0
"399",11,"SE-Asia","Indo West Pacific","Indonesia","Meso","Segara Anakan",108.89,-7.71,"Crustacea","Decapoda","Ocypodidae","Gelasimus","Gelasimus vocans","Inter_F",NA,NA,1,NA,NA,NA,NA,NA,NA,NA,1,NA,NA,NA,NA,1,NA,0
"400",11,"SE-Asia","Indo West Pacific","Indonesia","Meso","Segara Anakan",108.89,-7.71,"Crustacea","Decapoda","Ocypodidae","Uca","Uca sp. 1","Inter_F",NA,NA,1,NA,NA,NA,NA,NA,NA,NA,1,NA,NA,NA,NA,1,NA,0
"401",11,"SE-Asia","Indo West Pacific","Indonesia","Meso","Segara Anakan",108.89,-7.71,"Mollusca","Gastropoda","Onchidiidae","Onchidium","Onchidium sp. 1","Inter_F",NA,NA,1,NA,NA,NA,NA,NA,NA,NA,NA,NA,NA,NA,NA,NA,NA,1
"402",11,"SE-Asia","Indo West Pacific","Indonesia","Meso","Segara Anakan",108.89,-7.71,"Crustacea","Decapoda","Pilumnidae","Heteropanope","Heteropanope glabra","Inter_F",NA,NA,NA,NA,NA,NA,1,NA,NA,NA,NA,NA,NA,NA,NA,NA,NA,1
"403",11,"SE-Asia","Indo West Pacific","Indonesia","Meso","Segara Anakan",108.89,-7.71,"Mollusca","Gastropoda","Potamididae","Cerithidea","Cerithidea weyersi","Inter_F",NA,NA,1,NA,NA,NA,NA,NA,NA,NA,NA,NA,NA,NA,NA,NA,NA,1
"404",11,"SE-Asia","Indo West Pacific","Indonesia","Meso","Segara Anakan",108.89,-7.71,"Mollusca","Gastropoda","Potamididae","Pirenella","Pirenella alata","Inter_F",NA,NA,1,NA,NA,NA,NA,NA,NA,NA,NA,NA,NA,NA,NA,NA,NA,1
"405",11,"SE-Asia","Indo West Pacific","Indonesia","Meso","Segara Anakan",108.89,-7.71,"Mollusca","Gastropoda","Potamididae","Pirenella","Pirenella cingulata","Inter_F",NA,NA,1,NA,NA,NA,NA,NA,NA,NA,NA,NA,NA,NA,NA,NA,NA,1
"406",11,"SE-Asia","Indo West Pacific","Indonesia","Meso","Segara Anakan",108.89,-7.71,"Mollusca","Gastropoda","Potamididae","Telescopium","Telescopium telescopium","Inter_F",NA,1,NA,1,NA,NA,NA,NA,NA,NA,NA,NA,NA,NA,NA,NA,NA,1
"407",11,"SE-Asia","Indo West Pacific","Indonesia","Meso","Segara Anakan",108.89,-7.71,"Crustacea","Decapoda","Sesarmidae","Episesarma","Episesarma chentongense","Inter_F",NA,1,NA,1,NA,NA,NA,NA,NA,NA,1,NA,NA,NA,1,NA,NA,0
"408",11,"SE-Asia","Indo West Pacific","Indonesia","Meso","Segara Anakan",108.89,-7.71,"Crustacea","Decapoda","Sesarmidae","Episesarma","Episesarma singaporense","Inter_F",NA,1,NA,1,NA,NA,NA,NA,NA,NA,1,NA,NA,NA,1,NA,NA,0
"409",11,"SE-Asia","Indo West Pacific","Indonesia","Meso","Segara Anakan",108.89,-7.71,"Crustacea","Decapoda","Sesarmidae","Episesarma","Episesarma versicolor","Inter_F",NA,1,NA,1,NA,NA,NA,NA,NA,NA,1,NA,NA,NA,1,NA,NA,0
"410",11,"SE-Asia","Indo West Pacific","Indonesia","Meso","Segara Anakan",108.89,-7.71,"Crustacea","Decapoda","Sesarmidae","Haberma","Haberma cf. kamora","Inter_F",NA,NA,NA,1,NA,NA,NA,NA,NA,NA,NA,NA,NA,NA,NA,NA,1,1
"411",11,"SE-Asia","Indo West Pacific","Indonesia","Meso","Segara Anakan",108.89,-7.71,"Crustacea","Decapoda","Sesarmidae","Nanosesarma","Nanosesarma pontianacense","Inter_F",NA,NA,NA,1,NA,NA,NA,NA,NA,NA,NA,NA,NA,NA,NA,NA,NA,1
"412",11,"SE-Asia","Indo West Pacific","Indonesia","Meso","Segara Anakan",108.89,-7.71,"Crustacea","Decapoda","Sesarmidae","Parasesarma","Parasesarma sp. 1","Inter_F",NA,NA,NA,NA,NA,NA,NA,NA,NA,NA,NA,NA,NA,NA,NA,NA,1,1
"413",11,"SE-Asia","Indo West Pacific","Indonesia","Meso","Segara Anakan",108.89,-7.71,"Crustacea","Decapoda","Sesarmidae","Parasesarma","Parasesarma sp. 5","Inter_F",NA,NA,NA,NA,NA,NA,NA,NA,NA,NA,NA,NA,NA,NA,NA,NA,1,1
"414",11,"SE-Asia","Indo West Pacific","Indonesia","Meso","Segara Anakan",108.89,-7.71,"Crustacea","Decapoda","Sesarmidae","Sarmatium","Sarmatium crassum","Inter_F",NA,1,NA,1,NA,NA,NA,NA,NA,NA,1,NA,NA,NA,NA,NA,1,0
"415",11,"SE-Asia","Indo West Pacific","Indonesia","Meso","Segara Anakan",108.89,-7.71,"Mollusca","Bivalvia","Solecurtidae","cf. Azorinus","cf. Azorinus sp. 1","Inter_F",NA,NA,NA,NA,1,NA,NA,NA,NA,NA,NA,1,NA,NA,NA,NA,NA,0
"416",11,"SE-Asia","Indo West Pacific","Indonesia","Meso","Segara Anakan",108.89,-7.71,"Mollusca","Gastropoda","Thiaridae","Melanoides","Melanoides tuberculata","Inter_F",NA,NA,NA,1,NA,NA,NA,NA,NA,NA,NA,NA,NA,NA,NA,NA,NA,1
"417",11,"SE-Asia","Indo West Pacific","Indonesia","Meso","Segara Anakan",108.89,-7.71,"Mollusca","Gastropoda","Thiaridae","Sermyla","Sermyla riqueti","Inter_F",NA,NA,NA,1,NA,NA,NA,NA,NA,NA,NA,NA,NA,NA,NA,NA,NA,1
"418",11,"SE-Asia","Indo West Pacific","Indonesia","Meso","Segara Anakan",108.89,-7.71,"Mollusca","Gastropoda","Thiaridae","Tarebia","Tarebia granifera","Inter_F",NA,NA,NA,1,NA,NA,NA,NA,NA,NA,NA,NA,NA,NA,NA,NA,NA,1
"419",11,"SE-Asia","Indo West Pacific","Indonesia","Meso","Segara Anakan",108.89,-7.71,"Mollusca","Gastropoda","Thiaridae","Thiara","Thiara scabra","Inter_F",NA,NA,NA,1,NA,NA,NA,NA,NA,NA,NA,NA,NA,NA,NA,NA,NA,1
"420",11,"SE-Asia","Indo West Pacific","Indonesia","Meso","Segara Anakan",108.89,-7.71,"Mollusca","Gastropoda","Thiaridae","Thiara","Thiara rudis","Inter_F",NA,NA,NA,1,NA,NA,NA,NA,NA,NA,NA,NA,NA,NA,NA,NA,NA,1
"421",12.1,"SE-Asia","Indo West Pacific","Hong Kong","Meso","Mai Po",114.0458,22.499,"Crustacea","Decapoda","Alpheidae","Alpheus","Alpheus brevicristatus","Inter_M",NA,NA,NA,1,NA,NA,NA,NA,NA,NA,1,NA,NA,NA,NA,NA,NA,0
"422",12.1,"SE-Asia","Indo West Pacific","Hong Kong","Meso","Mai Po",114.0458,22.499,"Crustacea","Decapoda","Ocypodidae","Paraleptuca","Paraleptuca splendida","Inter_M",NA,NA,1,NA,NA,NA,NA,NA,NA,NA,1,NA,NA,NA,NA,1,NA,0
"423",12.1,"SE-Asia","Indo West Pacific","Hong Kong","Meso","Mai Po",114.0458,22.499,"Crustacea","Decapoda","Portunidae","Thalamita","Thalamita crenata","Sub",NA,NA,NA,NA,NA,NA,1,NA,NA,NA,1,NA,NA,NA,NA,NA,NA,0
"424",12.1,"SE-Asia","Indo West Pacific","Hong Kong","Meso","Mai Po",114.0458,22.499,"Mollusca","Bivalvia","Anomiidae","Enigmonia","Enigmonia aenigmatica","Inter_F",NA,NA,NA,NA,1,NA,NA,NA,NA,NA,NA,1,NA,NA,NA,NA,NA,0
"425",12.1,"SE-Asia","Indo West Pacific","Hong Kong","Meso","Mai Po",114.0458,22.499,"Mollusca","Gastropoda","Iravadiidae","Iravadia","Iravadia sp.1","Sub",NA,NA,1,NA,NA,NA,NA,NA,NA,NA,NA,NA,NA,NA,NA,NA,NA,1
"426",12.1,"SE-Asia","Indo West Pacific","Hong Kong","Meso","Mai Po",114.0458,22.499,"Mollusca","Gastropoda","Iravadiidae","Iravadia","Iravadia sp.2","Sub",NA,NA,1,NA,NA,NA,NA,NA,NA,NA,NA,NA,NA,NA,NA,NA,NA,1
"427",12.1,"SE-Asia","Indo West Pacific","Hong Kong","Meso","Mai Po",114.0458,22.499,"Mollusca","Bivalvia","Isognomonidae","Isognomon","Isognomon ephippium","Inter_F",NA,NA,NA,NA,1,NA,NA,NA,NA,NA,NA,NA,NA,1,NA,NA,NA,0
"428",12.1,"SE-Asia","Indo West Pacific","Hong Kong","Meso","Mai Po",114.0458,22.499,"Mollusca","Gastropoda","Neritidae","Nerita","Nerita balteata","Inter_F",NA,NA,1,NA,NA,NA,NA,NA,NA,NA,NA,NA,NA,NA,NA,NA,NA,1
"429",12.1,"SE-Asia","Indo West Pacific","Hong Kong","Meso","Mai Po",114.0458,22.499,"Mollusca","Gastropoda","Neritidae","Nerita","Nerita yoldii","Inter_M",NA,NA,1,NA,NA,NA,NA,NA,NA,NA,NA,NA,NA,NA,NA,NA,NA,1
"430",12.1,"SE-Asia","Indo West Pacific","Hong Kong","Meso","Mai Po",114.0458,22.499,"Crustacea","Decapoda","Ocypodidae","Austruca","Austruca lactea","Inter_M",NA,NA,1,NA,NA,NA,NA,NA,NA,NA,1,NA,NA,NA,NA,1,NA,0
"431",12.1,"SE-Asia","Indo West Pacific","Hong Kong","Meso","Mai Po",114.0458,22.499,"Crustacea","Decapoda","Ocypodidae","Gelasimus","Gelasimus borealis","Inter_M",NA,NA,1,NA,NA,NA,NA,NA,NA,NA,1,NA,NA,NA,NA,1,NA,0
"432",12.1,"SE-Asia","Indo West Pacific","Hong Kong","Meso","Mai Po",114.0458,22.499,"Crustacea","Decapoda","Ocypodidae","Tubuca","Tubuca arcuata","Inter_M",NA,NA,1,NA,NA,NA,NA,NA,NA,NA,1,NA,NA,NA,NA,1,NA,0
"433",12.1,"SE-Asia","Indo West Pacific","Hong Kong","Meso","Mai Po",114.0458,22.499,"Crustacea","Decapoda","Ocypodidae","Tubuca","Tubuca paradussumieri","Inter_M",NA,NA,1,NA,NA,NA,NA,NA,NA,NA,1,NA,NA,NA,NA,1,NA,0
"434",12.1,"SE-Asia","Indo West Pacific","Hong Kong","Meso","Mai Po",114.0458,22.499,"Mollusca","Bivalvia","Ostreidae","Saccostrea","Saccostrea cuccullata","Inter_M",NA,NA,NA,NA,1,NA,NA,NA,NA,NA,NA,NA,NA,1,NA,NA,NA,0
"435",12.1,"SE-Asia","Indo West Pacific","Hong Kong","Meso","Mai Po",114.0458,22.499,"Mollusca","Gastropoda","Potamididae","Cerithidea","Cerithidea moerchii","Inter_F",NA,NA,1,NA,NA,NA,NA,NA,NA,NA,NA,NA,NA,NA,NA,NA,NA,1
"436",12.1,"SE-Asia","Indo West Pacific","Hong Kong","Meso","Mai Po",114.0458,22.499,"Crustacea","Decapoda","Sesarmidae","Clistocoeloma","Clistocoeloma merguiense","Inter_F",NA,NA,NA,NA,NA,NA,NA,NA,NA,NA,1,NA,NA,NA,NA,NA,1,0
"437",12.1,"SE-Asia","Indo West Pacific","Hong Kong","Meso","Mai Po",114.0458,22.499,"Crustacea","Decapoda","Sesarmidae","Parasesarma","Parasesarma affine","Inter_F",NA,1,NA,1,NA,NA,NA,NA,NA,NA,1,NA,NA,NA,NA,NA,1,0
"438",12.1,"SE-Asia","Indo West Pacific","Hong Kong","Meso","Mai Po",114.0458,22.499,"Crustacea","Decapoda","Varunidae","Helice","Helice doerjesi","Supra",NA,1,NA,1,NA,NA,NA,NA,NA,NA,1,NA,NA,NA,NA,NA,NA,0
"439",12.1,"SE-Asia","Indo West Pacific","Hong Kong","Meso","Mai Po",114.0458,22.499,"Crustacea","Decapoda","Sesarmidae","Sinosesarma","Sinosesarma tangi","Supra",NA,1,NA,1,NA,NA,NA,NA,NA,NA,1,NA,NA,NA,NA,NA,1,0
"440",12.1,"SE-Asia","Indo West Pacific","Hong Kong","Meso","Mai Po",114.0458,22.499,"Crustacea","Decapoda","Macrophthalmidae","Macrophthalmus","Macrophthalmus convexus","Inter_M",NA,NA,NA,1,NA,NA,NA,NA,NA,NA,1,NA,NA,NA,NA,NA,NA,0
"441",12.1,"SE-Asia","Indo West Pacific","Hong Kong","Meso","Mai Po",114.0458,22.499,"Crustacea","Decapoda","Sesarmidae","Orisarma","Orisarma dehaani","Supra",NA,1,NA,NA,NA,NA,NA,NA,NA,NA,1,NA,NA,NA,NA,NA,1,0
"442",12.1,"SE-Asia","Indo West Pacific","Hong Kong","Meso","Mai Po",114.0458,22.499,"Crustacea","Decapoda","Sesarmidae","Orisarma","Orisamra neglectum","Supra",NA,1,NA,NA,NA,NA,NA,NA,NA,NA,1,NA,NA,NA,NA,NA,1,0
"443",12.1,"SE-Asia","Indo West Pacific","Hong Kong","Meso","Mai Po",114.0458,22.499,"Crustacea","Decapoda","Sesarmidae","Parasesarma","Parasesarma bidens","Inter_F",NA,1,NA,1,NA,NA,NA,NA,NA,NA,1,NA,NA,NA,NA,NA,1,0
"444",12.1,"SE-Asia","Indo West Pacific","Hong Kong","Meso","Mai Po",114.0458,22.499,"Crustacea","Decapoda","Portunidae","Scylla","Scylla paramamosain","Sub",NA,NA,NA,NA,NA,NA,1,NA,NA,NA,1,NA,NA,NA,NA,NA,NA,0
"445",12.1,"SE-Asia","Indo West Pacific","Hong Kong","Meso","Mai Po",114.0458,22.499,"Mollusca","Gastropoda","Assimineidae","Assiminea","Optediceros breviculum","Supra",NA,NA,NA,1,NA,NA,NA,NA,NA,NA,NA,NA,NA,NA,NA,NA,NA,1
"446",12.1,"SE-Asia","Indo West Pacific","Hong Kong","Meso","Mai Po",114.0458,22.499,"Mollusca","Gastropoda","Assimineidae","Ovassiminea","Ovassiminea dohrniana","Supra",NA,NA,NA,1,NA,NA,NA,NA,NA,NA,NA,NA,NA,NA,NA,NA,NA,1
"447",12.1,"SE-Asia","Indo West Pacific","Hong Kong","Meso","Mai Po",114.0458,22.499,"Mollusca","Bivalvia","Cyrenidae","Geloina","Geloina expansa","Inter_F",NA,NA,NA,NA,1,NA,NA,NA,NA,NA,NA,1,NA,NA,NA,NA,NA,0
"448",12.1,"SE-Asia","Indo West Pacific","Hong Kong","Meso","Mai Po",114.0458,22.499,"Crustacea","Decapoda","Dotillidae","Ilyoplax","Ilyoplax  formosensis","Inter_M",NA,NA,1,NA,NA,NA,NA,NA,NA,NA,1,NA,NA,NA,NA,1,NA,0
"449",12.1,"SE-Asia","Indo West Pacific","Hong Kong","Meso","Mai Po",114.0458,22.499,"Mollusca","Gastropoda","Ellobiidae","Ellobium","Ellobium aurisjudae","Supra",NA,NA,1,NA,NA,NA,NA,NA,NA,NA,NA,NA,NA,NA,NA,NA,NA,1
"450",12.1,"SE-Asia","Indo West Pacific","Hong Kong","Meso","Mai Po",114.0458,22.499,"Crustacea","Decapoda","Grapsidae","Metopograpsus","Metopograpsus frontalis","Supra",NA,NA,NA,NA,NA,1,1,NA,NA,NA,NA,NA,NA,NA,NA,NA,NA,1
"451",12.1,"SE-Asia","Indo West Pacific","Hong Kong","Meso","Mai Po",114.0458,22.499,"Crustacea","Decapoda","Grapsidae","Metopograpsus","Metopograpsus latifrons","Supra",NA,NA,NA,NA,NA,1,1,NA,NA,NA,NA,NA,NA,NA,NA,NA,NA,1
"452",12.1,"SE-Asia","Indo West Pacific","Hong Kong","Meso","Mai Po",114.0458,22.499,"Mollusca","Gastropoda","Littorinidae","Littoraria","Littoraria ardouiniana","Inter_F",NA,NA,1,NA,NA,NA,NA,NA,NA,NA,NA,NA,NA,NA,NA,NA,NA,1
"453",12.1,"SE-Asia","Indo West Pacific","Hong Kong","Meso","Mai Po",114.0458,22.499,"Mollusca","Gastropoda","Littorinidae","Littoraria","Littoraria melanostoma","Inter_F",NA,NA,1,NA,NA,NA,NA,NA,NA,NA,NA,NA,NA,NA,NA,NA,NA,1
"454",12.1,"SE-Asia","Indo West Pacific","Hong Kong","Meso","Mai Po",114.0458,22.499,"Crustacea","Decapoda","Macrophthalmidae","Macrophthalmus","Macrophthalmus tomentosus","Inter_M",NA,NA,NA,1,NA,NA,NA,NA,NA,NA,1,NA,NA,NA,NA,NA,NA,0
"455",12.1,"SE-Asia","Indo West Pacific","Hong Kong","Meso","Mai Po",114.0458,22.499,"Mollusca","Bivalvia","Mytilidae","Xenostrobus","Xenostrobus atratus","Inter_M",NA,NA,NA,NA,1,NA,NA,NA,NA,NA,NA,NA,NA,1,NA,NA,NA,0
"456",12.1,"SE-Asia","Indo West Pacific","Hong Kong","Meso","Mai Po",114.0458,22.499,"Mollusca","Gastropoda","Nassariidae","Nassarius","Nassarius sinarum","Inter_M",NA,NA,NA,NA,NA,NA,NA,NA,1,NA,NA,NA,NA,NA,NA,NA,NA,1
"457",12.1,"SE-Asia","Indo West Pacific","Hong Kong","Meso","Mai Po",114.0458,22.499,"Mollusca","Gastropoda","Nassariidae","Nassarius","Nassarius sp.2","Inter_M",NA,NA,NA,NA,NA,NA,NA,NA,1,NA,NA,NA,NA,NA,NA,NA,NA,1
"458",12.1,"SE-Asia","Indo West Pacific","Hong Kong","Meso","Mai Po",114.0458,22.499,"Mollusca","Gastropoda","Neritidae","Clithon","Clithon sowerbianum","Inter_F",NA,NA,NA,1,NA,NA,NA,NA,NA,NA,NA,NA,NA,NA,NA,NA,NA,1
"459",12.1,"SE-Asia","Indo West Pacific","Hong Kong","Meso","Mai Po",114.0458,22.499,"Mollusca","Gastropoda","Neritidae","Clithon","Clithon oualaniense","Inter_F",NA,NA,NA,1,NA,NA,NA,NA,NA,NA,NA,NA,NA,NA,NA,NA,NA,1
"460",12.1,"SE-Asia","Indo West Pacific","Hong Kong","Meso","Mai Po",114.0458,22.499,"Mollusca","Gastropoda","Neritidae","Neripteron","Neripteron violaceum","Inter_F",NA,NA,1,NA,NA,NA,NA,NA,NA,NA,NA,NA,NA,NA,NA,NA,NA,1
"461",12.1,"SE-Asia","Indo West Pacific","Hong Kong","Meso","Mai Po",114.0458,22.499,"Crustacea","Decapoda","Ocypodidae","Tubuca","Tubuca acuta","Inter_M",NA,NA,1,NA,NA,NA,NA,NA,NA,NA,1,NA,NA,NA,NA,1,NA,0
"462",12.1,"SE-Asia","Indo West Pacific","Hong Kong","Meso","Mai Po",114.0458,22.499,"Mollusca","Gastropoda","Onchidiidae","Onchidium","Onchidium sp. 1","Inter_F",NA,NA,1,NA,NA,NA,NA,NA,NA,NA,NA,NA,NA,NA,NA,NA,NA,1
"463",12.1,"SE-Asia","Indo West Pacific","Hong Kong","Meso","Mai Po",114.0458,22.499,"Mollusca","Bivalvia","Ostreidae","Crassostrea","Magallana gigas","Inter_M",NA,NA,NA,NA,1,NA,NA,NA,NA,NA,NA,NA,NA,1,NA,NA,NA,0
"464",12.1,"SE-Asia","Indo West Pacific","Hong Kong","Meso","Mai Po",114.0458,22.499,"Mollusca","Gastropoda","Potamididae","Pirenella","Pirenella alata","Inter_F",NA,NA,1,NA,NA,NA,NA,NA,NA,NA,NA,NA,NA,NA,NA,NA,NA,1
"465",12.1,"SE-Asia","Indo West Pacific","Hong Kong","Meso","Mai Po",114.0458,22.499,"Mollusca","Gastropoda","Potamididae","Pirenella","Pirenella asiatica","Inter_F",NA,NA,1,NA,NA,NA,NA,NA,NA,NA,NA,NA,NA,NA,NA,NA,NA,1
"466",12.1,"SE-Asia","Indo West Pacific","Hong Kong","Meso","Mai Po",114.0458,22.499,"Mollusca","Gastropoda","Potamididae","Terebralia","Terebralia sulcata","Inter_F",NA,1,NA,NA,NA,NA,NA,NA,NA,NA,NA,NA,NA,NA,NA,NA,NA,1
"467",12.1,"SE-Asia","Indo West Pacific","Hong Kong","Meso","Mai Po",114.0458,22.499,"Crustacea","Decapoda","Sesarmidae","Parasesarma","Parasesarma maipoense","Inter_F",NA,1,NA,1,NA,NA,NA,NA,NA,NA,1,NA,NA,NA,NA,NA,1,0
"468",12.1,"SE-Asia","Indo West Pacific","Hong Kong","Meso","Mai Po",114.0458,22.499,"Crustacea","Decapoda","Sesarmidae","Parasesarma","Parasesarma ungulatum","Inter_F",NA,1,NA,1,NA,NA,NA,NA,NA,NA,NA,NA,NA,NA,NA,NA,1,1
"469",12.1,"SE-Asia","Indo West Pacific","Hong Kong","Meso","Mai Po",114.0458,22.499,"Crustacea","Decapoda","Sesarmidae","Orisarma","Orisarma intermedium","Supra",NA,1,NA,1,NA,NA,NA,NA,NA,NA,1,NA,NA,NA,1,NA,NA,0
"470",12.2,"SE-Asia","Indo West Pacific","Hong Kong","Meso","Ting Kok",114.12,22.28,"Crustacea","Decapoda","Diogenidae","Clibanarius","Clibanarius bimaculatus","Inter_M",NA,NA,NA,NA,NA,NA,NA,1,NA,NA,NA,NA,NA,NA,NA,NA,NA,1
"471",12.2,"SE-Asia","Indo West Pacific","Hong Kong","Meso","Ting Kok",114.12,22.28,"Mollusca","Bivalvia","Anomiidae","Enigmonia","Enigmonia aenigmatica","Inter_F",NA,NA,NA,NA,1,NA,NA,NA,NA,NA,NA,1,NA,NA,NA,NA,NA,0
"472",12.2,"SE-Asia","Indo West Pacific","Hong Kong","Meso","Ting Kok",114.12,22.28,"Crustacea","Decapoda","Grapsidae","Metopograpsus","Metopograpsus frontalis","Inter_F",NA,NA,NA,NA,NA,1,1,NA,NA,NA,NA,NA,NA,NA,NA,NA,NA,1
"473",12.2,"SE-Asia","Indo West Pacific","Hong Kong","Meso","Ting Kok",114.12,22.28,"Mollusca","Gastropoda","Littorinidae","Littoraria","Littoraria ardouiniana","Inter_F",NA,NA,1,NA,NA,NA,NA,NA,NA,NA,NA,NA,NA,NA,NA,NA,NA,1
"474",12.2,"SE-Asia","Indo West Pacific","Hong Kong","Meso","Ting Kok",114.12,22.28,"Mollusca","Gastropoda","Littorinidae","Littoraria","Littoraria articulata","Inter_F",NA,NA,1,NA,NA,NA,NA,NA,NA,NA,NA,NA,NA,NA,NA,NA,NA,1
"475",12.2,"SE-Asia","Indo West Pacific","Hong Kong","Meso","Ting Kok",114.12,22.28,"Mollusca","Gastropoda","Littorinidae","Littoraria","Littoraria melanostoma","Inter_F",NA,NA,1,NA,NA,NA,NA,NA,NA,NA,NA,NA,NA,NA,NA,NA,NA,1
"476",12.2,"SE-Asia","Indo West Pacific","Hong Kong","Meso","Ting Kok",114.12,22.28,"Mollusca","Gastropoda","Nassariidae","Nassarius","Nassarius sinarum","Inter_M",NA,NA,NA,NA,NA,NA,NA,NA,1,NA,NA,NA,NA,NA,NA,NA,NA,1
"477",12.2,"SE-Asia","Indo West Pacific","Hong Kong","Meso","Ting Kok",114.12,22.28,"Crustacea","Decapoda","Ocypodidae","Tubuca","Tubuca arcuata","Inter_M",NA,NA,1,NA,NA,NA,NA,NA,NA,NA,1,NA,NA,NA,NA,1,NA,0
"478",12.2,"SE-Asia","Indo West Pacific","Hong Kong","Meso","Ting Kok",114.12,22.28,"Crustacea","Decapoda","Ocypodidae","Tubuca","Tubuca paradussumieri","Inter_F",NA,NA,1,NA,NA,NA,NA,NA,NA,NA,1,NA,NA,NA,NA,1,NA,0
"479",12.2,"SE-Asia","Indo West Pacific","Hong Kong","Meso","Ting Kok",114.12,22.28,"Mollusca","Bivalvia","Ostreidae","Saccostrea","Saccostrea cuccullata","Inter_F",NA,NA,NA,NA,1,NA,NA,NA,NA,NA,NA,NA,NA,1,NA,NA,NA,0
"480",12.2,"SE-Asia","Indo West Pacific","Hong Kong","Meso","Ting Kok",114.12,22.28,"Mollusca","Gastropoda","Potamididae","Terebralia","Terebralia sulcata","Inter_F",NA,1,NA,NA,NA,NA,NA,NA,NA,NA,NA,NA,NA,NA,NA,NA,NA,1
"481",12.2,"SE-Asia","Indo West Pacific","Hong Kong","Meso","Ting Kok",114.12,22.28,"Crustacea","Decapoda","Sesarmidae","Neosarmatium","Neosarmatium indicum","Inter_F",NA,1,NA,1,NA,NA,NA,NA,NA,NA,1,NA,NA,NA,1,NA,NA,0
"482",12.2,"SE-Asia","Indo West Pacific","Hong Kong","Meso","Ting Kok",114.12,22.28,"Mollusca","Gastropoda","Cerithiidae","Cerithium","Cerithium coralium","Inter_F",NA,NA,1,NA,NA,NA,NA,NA,NA,NA,NA,NA,NA,NA,NA,NA,NA,1
"483",12.2,"SE-Asia","Indo West Pacific","Hong Kong","Meso","Ting Kok",114.12,22.28,"Crustacea","Decapoda","Dotillidae","Tmethypocoelis","Tmethypocoelis ceratophora","Inter_F",NA,NA,1,NA,NA,NA,NA,NA,NA,NA,1,NA,NA,NA,NA,1,NA,0
"484",12.2,"SE-Asia","Indo West Pacific","Hong Kong","Meso","Ting Kok",114.12,22.28,"Crustacea","Decapoda","Varunidae","Metaplax","Metaplax tredecim","Inter_M",NA,NA,NA,1,NA,NA,NA,NA,NA,NA,1,NA,NA,NA,NA,NA,NA,0
"485",12.2,"SE-Asia","Indo West Pacific","Hong Kong","Meso","Ting Kok",114.12,22.28,"Mollusca","Gastropoda","Cerithiidae","Clypeomorus","Clypeomorus pellucida","Inter_F",NA,NA,1,NA,NA,NA,NA,NA,NA,NA,NA,NA,NA,NA,NA,NA,NA,1
"486",12.2,"SE-Asia","Indo West Pacific","Hong Kong","Meso","Ting Kok",114.12,22.28,"Mollusca","Gastropoda","Lottiidae","Patelloida","Patelloida pygmaea","Inter_F",NA,NA,1,NA,NA,NA,NA,NA,NA,NA,NA,NA,NA,NA,NA,NA,NA,1
"487",12.2,"SE-Asia","Indo West Pacific","Hong Kong","Meso","Ting Kok",114.12,22.28,"Crustacea","Decapoda","Ocypodidae","Gelasimus","Gelasimus borealis","Inter_F",NA,NA,1,NA,NA,NA,NA,NA,NA,NA,1,NA,NA,NA,NA,1,NA,0
"488",12.2,"SE-Asia","Indo West Pacific","Hong Kong","Meso","Ting Kok",114.12,22.28,"Crustacea","Decapoda","Sesarmidae","Sarmatium","Sarmatium germaini","Inter_F",NA,1,NA,1,NA,NA,NA,NA,NA,NA,1,NA,NA,NA,1,NA,NA,0
"489",12.2,"SE-Asia","Indo West Pacific","Hong Kong","Meso","Ting Kok",114.12,22.28,"Crustacea","Decapoda","Alpheidae","Alpheus","Alpheus brevicristatus","Inter_M",NA,NA,NA,1,NA,NA,NA,NA,NA,NA,1,NA,NA,NA,NA,NA,NA,0
"490",12.2,"SE-Asia","Indo West Pacific","Hong Kong","Meso","Ting Kok",114.12,22.28,"Mollusca","Gastropoda","Batillaridae","Batillaria","Batillaria attramentaria","Inter_M",NA,NA,1,NA,NA,NA,NA,NA,NA,NA,NA,NA,NA,NA,NA,NA,NA,1
"491",12.2,"SE-Asia","Indo West Pacific","Hong Kong","Meso","Ting Kok",114.12,22.28,"Mollusca","Gastropoda","Batillaridae","Batillaria","Batillaria cumingii","Inter_M",NA,NA,1,NA,NA,NA,NA,NA,NA,NA,NA,NA,NA,NA,NA,NA,NA,1
"492",12.2,"SE-Asia","Indo West Pacific","Hong Kong","Meso","Ting Kok",114.12,22.28,"Mollusca","Gastropoda","Batillaridae","Batillaria","Batillaria zonalis","Inter_M",NA,NA,1,NA,NA,NA,NA,NA,NA,NA,NA,NA,NA,NA,NA,NA,NA,1
"493",12.2,"SE-Asia","Indo West Pacific","Hong Kong","Meso","Ting Kok",114.12,22.28,"Mollusca","Bivalvia","Cyrenidae","Geloina","Geloina expansa","Inter_F",NA,NA,NA,NA,1,NA,NA,NA,NA,NA,NA,1,NA,NA,NA,NA,NA,0
"494",12.2,"SE-Asia","Indo West Pacific","Hong Kong","Meso","Ting Kok",114.12,22.28,"Crustacea","Decapoda","Diogenidae","Clibanarius","Clibanarius infraspinatus","Inter_M",NA,NA,NA,NA,NA,NA,NA,1,NA,NA,NA,NA,NA,NA,NA,NA,NA,1
"495",12.2,"SE-Asia","Indo West Pacific","Hong Kong","Meso","Ting Kok",114.12,22.28,"Crustacea","Decapoda","Dotillidae","Scopimera","Scopimera intermedia","Inter_M",NA,NA,1,NA,NA,NA,NA,NA,NA,NA,1,NA,NA,NA,NA,1,NA,0
"496",12.2,"SE-Asia","Indo West Pacific","Hong Kong","Meso","Ting Kok",114.12,22.28,"Mollusca","Gastropoda","Ellobidae","Cassidula","Cassidula aurifelis","Inter_F",NA,NA,1,NA,NA,NA,NA,NA,NA,NA,NA,NA,NA,NA,NA,NA,NA,1
"497",12.2,"SE-Asia","Indo West Pacific","Hong Kong","Meso","Ting Kok",114.12,22.28,"Mollusca","Bivalvia","Isognomonidae","Isognomon","Isognomon isognomum","Inter_F",NA,NA,NA,NA,1,NA,NA,NA,NA,NA,NA,NA,NA,1,NA,NA,NA,0
"498",12.2,"SE-Asia","Indo West Pacific","Hong Kong","Meso","Ting Kok",114.12,22.28,"Mollusca","Bivalvia","Mytilidae","Brachidontes","Brachidontes variabilis","Inter_F",NA,NA,NA,NA,1,NA,NA,NA,NA,NA,NA,NA,NA,1,NA,NA,NA,0
"499",12.2,"SE-Asia","Indo West Pacific","Hong Kong","Meso","Ting Kok",114.12,22.28,"Mollusca","Gastropoda","Neritidae","Clithon","Clithon oualaniense","Inter_M",NA,NA,NA,1,NA,NA,NA,NA,NA,NA,NA,NA,NA,NA,NA,NA,NA,1
"500",12.2,"SE-Asia","Indo West Pacific","Hong Kong","Meso","Ting Kok",114.12,22.28,"Mollusca","Gastropoda","Neritidae","Nerita","Nerita panospira","Inter_F",NA,NA,1,NA,NA,NA,NA,NA,NA,NA,NA,NA,NA,NA,NA,NA,NA,1
"501",12.2,"SE-Asia","Indo West Pacific","Hong Kong","Meso","Ting Kok",114.12,22.28,"Crustacea","Decapoda","Ocypodidae","Austruca","Austruca lactea","Inter_F",NA,NA,1,NA,NA,NA,NA,NA,NA,NA,1,NA,NA,NA,NA,1,NA,0
"502",12.2,"SE-Asia","Indo West Pacific","Hong Kong","Meso","Ting Kok",114.12,22.28,"Crustacea","Decapoda","Ocypodidae","Paraleptuca","Paraleptuca splendida","Inter_F",NA,NA,1,NA,NA,NA,NA,NA,NA,NA,1,NA,NA,NA,NA,1,NA,0
"503",12.2,"SE-Asia","Indo West Pacific","Hong Kong","Meso","Ting Kok",114.12,22.28,"Mollusca","Gastropoda","Onchidiidae","Paromoionchis","Paromoionchis tumidus","Inter_M",NA,NA,1,NA,NA,NA,NA,NA,NA,NA,NA,NA,NA,NA,NA,NA,NA,1
"504",12.2,"SE-Asia","Indo West Pacific","Hong Kong","Meso","Ting Kok",114.12,22.28,"Crustacea","Decapoda","Portunidae","Scylla","Scylla paramamosain","Sub",NA,NA,NA,NA,NA,NA,1,NA,NA,NA,1,NA,NA,NA,NA,NA,NA,0
"505",12.2,"SE-Asia","Indo West Pacific","Hong Kong","Meso","Ting Kok",114.12,22.28,"Crustacea","Decapoda","Portunidae","Thalamita","Thalamita crenata","Inter_F",NA,NA,NA,NA,NA,NA,1,NA,NA,NA,1,NA,NA,NA,NA,NA,NA,0
"506",12.2,"SE-Asia","Indo West Pacific","Hong Kong","Meso","Ting Kok",114.12,22.28,"Mollusca","Gastropoda","Potamididae","Cerithidea","Cerithidea tonkiniana","Inter_F",NA,NA,1,NA,NA,NA,NA,NA,NA,NA,NA,NA,NA,NA,NA,NA,NA,1
"507",12.2,"SE-Asia","Indo West Pacific","Hong Kong","Meso","Ting Kok",114.12,22.28,"Mollusca","Gastropoda","Potamididae","Cerithidea","Cerithidea moerchii","Inter_F",NA,NA,1,NA,NA,NA,NA,NA,NA,NA,NA,NA,NA,NA,NA,NA,NA,1
"508",12.2,"SE-Asia","Indo West Pacific","Hong Kong","Meso","Ting Kok",114.12,22.28,"Mollusca","Gastropoda","Potamididae","Pirenella","Pirenella alata","Inter_M",NA,NA,1,NA,NA,NA,NA,NA,NA,NA,NA,NA,NA,NA,NA,NA,NA,1
"509",12.2,"SE-Asia","Indo West Pacific","Hong Kong","Meso","Ting Kok",114.12,22.28,"Mollusca","Gastropoda","Potamididae","Pirenella","Pirenella incisa","Inter_M",NA,NA,1,NA,NA,NA,NA,NA,NA,NA,NA,NA,NA,NA,NA,NA,NA,1
"510",12.2,"SE-Asia","Indo West Pacific","Hong Kong","Meso","Ting Kok",114.12,22.28,"Mollusca","Gastropoda","Potamididae","Pirenella","Pirenella pupiformis","Inter_M",NA,NA,1,NA,NA,NA,NA,NA,NA,NA,NA,NA,NA,NA,NA,NA,NA,1
"511",12.2,"SE-Asia","Indo West Pacific","Hong Kong","Meso","Ting Kok",114.12,22.28,"Crustacea","Decapoda","Sesarmidae","Fasciarma","Fasciarma fasciatum","Supra",NA,1,NA,1,NA,NA,NA,NA,NA,NA,NA,NA,NA,NA,NA,NA,1,1
"512",12.2,"SE-Asia","Indo West Pacific","Hong Kong","Meso","Ting Kok",114.12,22.28,"Crustacea","Decapoda","Sesarmidae","Haberma","Haberma tingkok","Inter_F",1,1,NA,NA,NA,NA,NA,NA,NA,NA,NA,NA,NA,NA,NA,NA,NA,1
"513",12.2,"SE-Asia","Indo West Pacific","Hong Kong","Meso","Ting Kok",114.12,22.28,"Crustacea","Decapoda","Sesarmidae","Parasesarma","Parasesarma bidens","Supra",NA,1,NA,1,NA,NA,NA,NA,NA,NA,1,NA,NA,NA,NA,NA,1,0
"514",12.2,"SE-Asia","Indo West Pacific","Hong Kong","Meso","Ting Kok",114.12,22.28,"Crustacea","Decapoda","Sesarmidae","Parasesarma","Parasesarma ungulatum","Inter_F",NA,1,NA,1,NA,NA,NA,NA,NA,NA,NA,NA,NA,NA,NA,NA,1,1
"515",12.2,"SE-Asia","Indo West Pacific","Hong Kong","Meso","Ting Kok",114.12,22.28,"Mollusca","Gastropoda","Trochidae","Monodonta","Monodonta labio","Inter_F",NA,NA,1,NA,NA,NA,NA,NA,NA,NA,NA,NA,NA,NA,NA,NA,NA,1
"516",12.2,"SE-Asia","Indo West Pacific","Hong Kong","Meso","Ting Kok",114.12,22.28,"Mollusca","Gastropoda","Turbinidae","Lunella","Lunella granulata","Inter_F",NA,NA,1,NA,NA,NA,NA,NA,NA,NA,NA,NA,NA,NA,NA,NA,NA,1
"517",12.2,"SE-Asia","Indo West Pacific","Hong Kong","Meso","Ting Kok",114.12,22.28,"Crustacea","Decapoda","Varunidae","Chasmagnathus","Chasmagnathus convexus","Supra",NA,1,NA,1,NA,NA,NA,NA,NA,NA,1,NA,NA,NA,1,NA,NA,0
"518",12.2,"SE-Asia","Indo West Pacific","Hong Kong","Meso","Ting Kok",114.12,22.28,"Mollusca","Bivalvia","Veneridae","Gafrarium","Gafrarium pectinatum","Inter_M",NA,NA,NA,NA,1,NA,NA,NA,NA,NA,NA,1,NA,NA,NA,NA,NA,0
"519",12.3,"SE-Asia","Indo West Pacific","Hong Kong","Meso","Thung Chung",113.92777778,22.28055556,"Crustacea","Decapoda","Diogenidae","Clibanarius","Clibanarius bimaculatus","Inter_M",NA,NA,NA,NA,NA,NA,NA,1,NA,NA,NA,NA,NA,NA,NA,NA,NA,1
"520",12.3,"SE-Asia","Indo West Pacific","Hong Kong","Meso","Thung Chung",113.92777778,22.28055556,"Crustacea","Decapoda","Diogenidae","Clibanarius","Clibanarius infraspinatus","Inter_M",NA,NA,NA,NA,NA,NA,NA,1,NA,NA,NA,NA,NA,NA,NA,NA,NA,1
"521",12.3,"SE-Asia","Indo West Pacific","Hong Kong","Meso","Thung Chung",113.92777778,22.28055556,"Crustacea","Decapoda","Grapsidae","Metopograpsus","Metopograpsus quadridentatus","Inter_F",NA,NA,NA,NA,NA,1,1,NA,NA,NA,NA,NA,NA,NA,NA,NA,NA,1
"522",12.3,"SE-Asia","Indo West Pacific","Hong Kong","Meso","Thung Chung",113.92777778,22.28055556,"Crustacea","Decapoda","Leucosiidae","Philyra","Philyra malefactrix","Inter_F",NA,NA,NA,1,NA,NA,NA,NA,NA,NA,NA,NA,NA,NA,NA,NA,1,1
"523",12.3,"SE-Asia","Indo West Pacific","Hong Kong","Meso","Thung Chung",113.92777778,22.28055556,"Crustacea","Decapoda","Ocypodidae","Austruca","Austruca lactea","Inter_M",NA,NA,1,NA,NA,NA,NA,NA,NA,NA,1,NA,NA,NA,NA,1,NA,0
"524",12.3,"SE-Asia","Indo West Pacific","Hong Kong","Meso","Thung Chung",113.92777778,22.28055556,"Crustacea","Decapoda","Ocypodidae","Tubuca","Tubuca acuta","Inter_F",NA,NA,1,NA,NA,NA,NA,NA,NA,NA,1,NA,NA,NA,NA,1,NA,0
"525",12.3,"SE-Asia","Indo West Pacific","Hong Kong","Meso","Thung Chung",113.92777778,22.28055556,"Crustacea","Decapoda","Ocypodidae","Tubuca","Tubuca arcuata","Inter_F",NA,NA,1,NA,NA,NA,NA,NA,NA,NA,1,NA,NA,NA,NA,1,NA,0
"526",12.3,"SE-Asia","Indo West Pacific","Hong Kong","Meso","Thung Chung",113.92777778,22.28055556,"Crustacea","Decapoda","Ocypodidae","Tubuca","Tubuca paradussumieri","Inter_F",NA,NA,1,NA,NA,NA,NA,NA,NA,NA,1,NA,NA,NA,NA,1,NA,0
"527",12.3,"SE-Asia","Indo West Pacific","Hong Kong","Meso","Thung Chung",113.92777778,22.28055556,"Mollusca","Bivalvia","Ostreidae","Saccostrea","Saccostrea cuccullata","Inter_M",NA,NA,NA,NA,1,NA,NA,NA,NA,NA,NA,NA,NA,1,NA,NA,NA,0
"528",12.3,"SE-Asia","Indo West Pacific","Hong Kong","Meso","Thung Chung",113.92777778,22.28055556,"Mollusca","Gastropoda","Potamididae","Cerithidea","Cerithidea moerchii","Inter_M",NA,NA,1,NA,NA,NA,NA,NA,NA,NA,NA,NA,NA,NA,NA,NA,NA,1
"529",12.3,"SE-Asia","Indo West Pacific","Hong Kong","Meso","Thung Chung",113.92777778,22.28055556,"Mollusca","Gastropoda","Potamididae","Terebralia","Terebralia sulcata","Inter_F",NA,1,NA,NA,NA,NA,NA,NA,NA,NA,NA,NA,NA,NA,NA,NA,NA,1
"530",12.3,"SE-Asia","Indo West Pacific","Hong Kong","Meso","Thung Chung",113.92777778,22.28055556,"Crustacea","Decapoda","Sesarmidae","Neosarmatium","Neosarmatium indicum","Supra",NA,1,NA,1,NA,NA,NA,NA,NA,NA,1,NA,NA,NA,1,NA,NA,0
"531",12.3,"SE-Asia","Indo West Pacific","Hong Kong","Meso","Thung Chung",113.92777778,22.28055556,"Crustacea","Decapoda","Varunidae","Metaplax","Metaplax longipes","Inter_M",NA,NA,NA,1,NA,NA,NA,NA,NA,NA,1,NA,NA,NA,NA,NA,NA,0
"532",12.3,"SE-Asia","Indo West Pacific","Hong Kong","Meso","Thung Chung",113.92777778,22.28055556,"Crustacea","Decapoda","Varunidae","Varuna","Varuna litterata","Sub",NA,NA,NA,NA,NA,NA,NA,1,NA,NA,NA,NA,NA,NA,NA,NA,1,1
"533",12.3,"SE-Asia","Indo West Pacific","Hong Kong","Meso","Thung Chung",113.92777778,22.28055556,"Crustacea","Decapoda","Ocypodidae","Gelasimus","Gelasimus borealis","Inter_M",NA,NA,1,NA,NA,NA,NA,NA,NA,NA,1,NA,NA,NA,NA,1,NA,0
"534",12.3,"SE-Asia","Indo West Pacific","Hong Kong","Meso","Thung Chung",113.92777778,22.28055556,"Crustacea","Decapoda","Dotillidae","Tmethypocoelis","Tmethypocoelis ceratophora","Inter_F",NA,NA,1,NA,NA,NA,NA,NA,NA,NA,1,NA,NA,NA,NA,1,NA,0
"535",12.3,"SE-Asia","Indo West Pacific","Hong Kong","Meso","Thung Chung",113.92777778,22.28055556,"Mollusca","Gastropoda","Neritidae","Nerita","Nerita yoldii","Inter_M",NA,NA,1,NA,NA,NA,NA,NA,NA,NA,NA,NA,NA,NA,NA,NA,NA,1
"536",12.3,"SE-Asia","Indo West Pacific","Hong Kong","Meso","Thung Chung",113.92777778,22.28055556,"Crustacea","Decapoda","Alpheidae","Alpheus","Alpheus brevicristatus","Inter_F",NA,NA,NA,1,NA,NA,NA,NA,NA,NA,1,NA,NA,NA,NA,NA,NA,0
"537",12.3,"SE-Asia","Indo West Pacific","Hong Kong","Meso","Thung Chung",113.92777778,22.28055556,"Mollusca","Gastropoda","Batillaridae","Batillaria","Batillaria zonalis","Inter_M",NA,NA,1,NA,NA,NA,NA,NA,NA,NA,NA,NA,NA,NA,NA,NA,NA,1
"538",12.3,"SE-Asia","Indo West Pacific","Hong Kong","Meso","Thung Chung",113.92777778,22.28055556,"Mollusca","Gastropoda","Batillaridae","Batillaria","Batillaria attramentaria","Inter_M",NA,NA,1,NA,NA,NA,NA,NA,NA,NA,NA,NA,NA,NA,NA,NA,NA,1
"539",12.3,"SE-Asia","Indo West Pacific","Hong Kong","Meso","Thung Chung",113.92777778,22.28055556,"Mollusca","Gastropoda","Neritidae","Clithon","Clithon oualaniense","Inter_F",NA,NA,NA,1,NA,NA,NA,NA,NA,NA,NA,NA,NA,NA,NA,NA,NA,1
"540",12.3,"SE-Asia","Indo West Pacific","Hong Kong","Meso","Thung Chung",113.92777778,22.28055556,"Crustacea","Decapoda","Portunidae","Thalamita","Thalamita crenata","Sub",NA,NA,NA,NA,NA,NA,1,NA,NA,NA,1,NA,NA,NA,NA,NA,NA,0
"541",12.3,"SE-Asia","Indo West Pacific","Hong Kong","Meso","Thung Chung",113.92777778,22.28055556,"Crustacea","Decapoda","Sesarmidae","Parasesarma","Parasesarma bidens","Inter_F",NA,1,NA,1,NA,NA,NA,NA,NA,NA,1,NA,NA,NA,NA,NA,1,0
"542",12.3,"SE-Asia","Indo West Pacific","Hong Kong","Meso","Thung Chung",113.92777778,22.28055556,"Mollusca","Bivalvia","Cyrenidae","Geloina","Geloina expansa","Inter_F",NA,NA,NA,NA,1,NA,NA,NA,NA,NA,NA,1,NA,NA,NA,NA,NA,0
"543",12.3,"SE-Asia","Indo West Pacific","Hong Kong","Meso","Thung Chung",113.92777778,22.28055556,"Crustacea","Decapoda","Grapsidae","Metopograpsus","Metopograpsus frontalis","Inter_F",NA,NA,NA,NA,NA,1,1,NA,NA,NA,NA,NA,NA,NA,NA,NA,NA,1
"544",12.3,"SE-Asia","Indo West Pacific","Hong Kong","Meso","Thung Chung",113.92777778,22.28055556,"Mollusca","Bivalvia","Isognomonidae","Isognomon","Isognomon isognomum","Inter_F",NA,NA,NA,NA,1,NA,NA,NA,NA,NA,NA,NA,NA,1,NA,NA,NA,0
"545",12.3,"SE-Asia","Indo West Pacific","Hong Kong","Meso","Thung Chung",113.92777778,22.28055556,"Mollusca","Gastropoda","Littorinidae","Littoraria","Littoraria ardouiniana","Inter_F",NA,NA,1,NA,NA,NA,NA,NA,NA,NA,NA,NA,NA,NA,NA,NA,NA,1
"546",12.3,"SE-Asia","Indo West Pacific","Hong Kong","Meso","Thung Chung",113.92777778,22.28055556,"Mollusca","Gastropoda","Littorinidae","Littoraria","Littoraria melanostoma","Inter_F",NA,NA,1,NA,NA,NA,NA,NA,NA,NA,NA,NA,NA,NA,NA,NA,NA,1
"547",12.3,"SE-Asia","Indo West Pacific","Hong Kong","Meso","Thung Chung",113.92777778,22.28055556,"Mollusca","Gastropoda","Littorinidae","Littoraria","Littoraria articulata/ sinensis","Inter_F",NA,NA,1,NA,NA,NA,NA,NA,NA,NA,NA,NA,NA,NA,NA,NA,NA,1
"548",12.3,"SE-Asia","Indo West Pacific","Hong Kong","Meso","Thung Chung",113.92777778,22.28055556,"Crustacea","Decapoda","Macrophthalmidae","Macrophthalmus","Macrophthalmus convexus","Inter_M",NA,NA,NA,1,NA,NA,NA,NA,NA,NA,1,NA,NA,NA,NA,NA,NA,0
"549",12.3,"SE-Asia","Indo West Pacific","Hong Kong","Meso","Thung Chung",113.92777778,22.28055556,"Crustacea","Decapoda","Macrophthalmidae","Macrophthalmus","Macrophthalmus tomentosus","Inter_M",NA,NA,NA,1,NA,NA,NA,NA,NA,NA,1,NA,NA,NA,NA,NA,NA,0
"550",12.3,"SE-Asia","Indo West Pacific","Hong Kong","Meso","Thung Chung",113.92777778,22.28055556,"Mollusca","Gastropoda","Neritidae","Clithon","Clithon sowerbianum","Inter_F",NA,NA,NA,1,NA,NA,NA,NA,NA,NA,NA,NA,NA,NA,NA,NA,NA,1
"551",12.3,"SE-Asia","Indo West Pacific","Hong Kong","Meso","Thung Chung",113.92777778,22.28055556,"Mollusca","Gastropoda","Neritidae","Neripteron","Neripteron violaceum","Inter_F",NA,NA,1,NA,NA,NA,NA,NA,NA,NA,NA,NA,NA,NA,NA,NA,NA,1
"552",12.3,"SE-Asia","Indo West Pacific","Hong Kong","Meso","Thung Chung",113.92777778,22.28055556,"Crustacea","Decapoda","Ocypodidae","Paraleptuca","Paraleptuca splendida","Inter_F",NA,NA,1,NA,NA,NA,NA,NA,NA,NA,1,NA,NA,NA,NA,1,NA,0
"553",12.3,"SE-Asia","Indo West Pacific","Hong Kong","Meso","Thung Chung",113.92777778,22.28055556,"Mollusca","Gastropoda","Onchidiidae","Onchidium","Onchidium sp.1","Inter_M",NA,NA,1,NA,NA,NA,NA,NA,NA,NA,NA,NA,NA,NA,NA,NA,NA,1
"554",12.3,"SE-Asia","Indo West Pacific","Hong Kong","Meso","Thung Chung",113.92777778,22.28055556,"Crustacea","Decapoda","Portunidae","Scylla","Scylla paramamosain","Sub",NA,NA,NA,NA,NA,NA,1,NA,NA,NA,1,NA,NA,NA,NA,NA,NA,0
"555",12.3,"SE-Asia","Indo West Pacific","Hong Kong","Meso","Thung Chung",113.92777778,22.28055556,"Mollusca","Gastropoda","Potamididae","Pirenella","Pirenella alata","Inter_M",NA,NA,1,NA,NA,NA,NA,NA,NA,NA,NA,NA,NA,NA,NA,NA,NA,1
"556",12.3,"SE-Asia","Indo West Pacific","Hong Kong","Meso","Thung Chung",113.92777778,22.28055556,"Mollusca","Gastropoda","Potamididae","Pirenella","Pirenella asiatica","Inter_M",NA,NA,1,NA,NA,NA,NA,NA,NA,NA,NA,NA,NA,NA,NA,NA,NA,1
"557",12.3,"SE-Asia","Indo West Pacific","Hong Kong","Meso","Thung Chung",113.92777778,22.28055556,"Crustacea","Decapoda","Sesarmidae","Episesarma","Episesarma versicolor","Inter_F",NA,1,NA,1,NA,NA,NA,NA,NA,NA,1,NA,NA,NA,1,NA,NA,0
"558",12.3,"SE-Asia","Indo West Pacific","Hong Kong","Meso","Thung Chung",113.92777778,22.28055556,"Crustacea","Decapoda","Sesarmidae","Nanosesarma","Nanosesarma pontianacense","Inter_F",NA,NA,NA,1,NA,NA,NA,NA,NA,NA,NA,NA,NA,NA,NA,NA,NA,1
"559",12.3,"SE-Asia","Indo West Pacific","Hong Kong","Meso","Thung Chung",113.92777778,22.28055556,"Crustacea","Decapoda","Sesarmidae","Parasesarma","Parasesarma affine","Inter_F",NA,1,NA,1,NA,NA,NA,NA,NA,NA,1,NA,NA,NA,NA,NA,1,0
"560",12.3,"SE-Asia","Indo West Pacific","Hong Kong","Meso","Thung Chung",113.92777778,22.28055556,"Mollusca","Gastropoda","Trochidae","Monodonta","Monodonta labio","Inter_F",NA,NA,1,NA,NA,NA,NA,NA,NA,NA,NA,NA,NA,NA,NA,NA,NA,1
"561",12.3,"SE-Asia","Indo West Pacific","Hong Kong","Meso","Thung Chung",113.92777778,22.28055556,"Crustacea","Decapoda","Varunidae","Chasmagnathus","Chasmagnathus convexus","Supra",NA,1,NA,1,NA,NA,NA,NA,NA,NA,1,NA,NA,NA,1,NA,NA,0
"562",13,"Australia","Indo West Pacific","Australia","Meso","Moreton Bay",153.25,-27.25,"Crustacea","Decapoda","Alpheidae","Alpheus","Alpheus richardsoni","Inter_M",NA,NA,NA,1,NA,NA,NA,NA,NA,NA,1,NA,NA,NA,NA,NA,NA,0
"563",13,"Australia","Indo West Pacific","Australia","Meso","Moreton Bay",153.25,-27.25,"Mollusca","Gastropoda","Amphibolidae ","Phallomedusa","Phallomedusa solida","Inter_F",NA,NA,NA,1,NA,NA,NA,NA,NA,NA,NA,NA,NA,NA,NA,NA,NA,1
"564",13,"Australia","Indo West Pacific","Australia","Meso","Moreton Bay",153.25,-27.25,"Crustacea","Decapoda","Camptandriidae","Paracleistostoma","Paracleistostoma wardi","Inter_F",NA,NA,NA,NA,NA,NA,NA,1,NA,NA,1,NA,NA,NA,NA,NA,1,0
"565",13,"Australia","Indo West Pacific","Australia","Meso","Moreton Bay",153.25,-27.25,"Mollusca","Gastropoda","Ellobiidae","Ophicardelus","Ophicardelus ornatus","Inter_F",NA,NA,NA,1,NA,NA,NA,NA,NA,NA,NA,NA,NA,NA,NA,NA,NA,1
"566",13,"Australia","Indo West Pacific","Australia","Meso","Moreton Bay",153.25,-27.25,"Mollusca","Gastropoda","Ellobiidae","Ophicardelus","Ophicardelus sulcatus","Inter_F",NA,NA,NA,1,NA,NA,NA,NA,NA,NA,NA,NA,NA,NA,NA,NA,NA,1
"567",13,"Australia","Indo West Pacific","Australia","Meso","Moreton Bay",153.25,-27.25,"Crustacea","Decapoda","Heloecidae","Heloecius","Heloecius cordiformis","Inter_M",NA,NA,1,NA,NA,NA,NA,NA,NA,NA,1,NA,NA,NA,NA,1,NA,0
"568",13,"Australia","Indo West Pacific","Australia","Meso","Moreton Bay",153.25,-27.25,"Crustacea","Decapoda","Laomediidae","Laomedia","Laomedia healyi","Sub",NA,NA,NA,NA,1,NA,NA,NA,NA,NA,1,NA,NA,NA,NA,NA,NA,0
"569",13,"Australia","Indo West Pacific","Australia","Meso","Moreton Bay",153.25,-27.25,"Crustacea","Decapoda","Macrophthalmidae","Australoplax","Australoplax tridentata","Inter_F",NA,NA,NA,1,NA,NA,NA,NA,NA,NA,1,NA,NA,NA,NA,NA,NA,0
"570",13,"Australia","Indo West Pacific","Australia","Meso","Moreton Bay",153.25,-27.25,"Crustacea","Decapoda","Macrophthalmidae","Macrophthalmus","Macrophthalmus crassipes","Inter_M",NA,NA,NA,1,NA,NA,NA,NA,NA,NA,1,NA,NA,NA,NA,NA,NA,0
"571",13,"Australia","Indo West Pacific","Australia","Meso","Moreton Bay",153.25,-27.25,"Crustacea","Decapoda","Ocypodidae","Austruca","Austruca perplexa","Inter_M",NA,NA,1,NA,NA,NA,NA,NA,NA,NA,1,NA,NA,NA,NA,1,NA,0
"572",13,"Australia","Indo West Pacific","Australia","Meso","Moreton Bay",153.25,-27.25,"Crustacea","Decapoda","Ocypodidae","Gelasimus","Gelasimus vomeris","Inter_M",NA,NA,1,NA,NA,NA,NA,NA,NA,NA,1,NA,NA,NA,NA,1,NA,0
"573",13,"Australia","Indo West Pacific","Australia","Meso","Moreton Bay",153.25,-27.25,"Crustacea","Decapoda","Portunidae","Thalamita","Thalamita crenata","Sub",NA,NA,NA,NA,NA,NA,1,NA,NA,NA,1,NA,NA,NA,NA,NA,NA,0
"574",13,"Australia","Indo West Pacific","Australia","Meso","Moreton Bay",153.25,-27.25,"Crustacea","Decapoda","Sesarmidae","Parasesarma","Parasesarma erythodactyla","Inter_F",NA,1,NA,1,NA,NA,NA,NA,NA,NA,1,NA,NA,NA,NA,NA,1,0
"575",13,"Australia","Indo West Pacific","Australia","Meso","Moreton Bay",153.25,-27.25,"Crustacea","Decapoda","Sesarmidae","Parasesarma","Parasesarma messa","Inter_F",NA,1,NA,1,NA,NA,NA,NA,NA,NA,1,NA,NA,NA,NA,NA,1,0
"576",13,"Australia","Indo West Pacific","Australia","Meso","Moreton Bay",153.25,-27.25,"Crustacea","Decapoda","Varunidae","Helograpsus","Helograpsus haswellianus","Inter_F",NA,NA,NA,1,NA,NA,NA,NA,NA,NA,1,NA,NA,NA,NA,NA,NA,0
"577",13,"Australia","Indo West Pacific","Australia","Meso","Moreton Bay",153.25,-27.25,"Mollusca","Gastropoda","Onchidiidae","Platevindex","Platevindex sp. 1","Inter_F",NA,NA,1,NA,NA,NA,NA,NA,NA,NA,NA,NA,NA,NA,NA,NA,NA,1
"578",13,"Australia","Indo West Pacific","Australia","Meso","Moreton Bay",153.25,-27.25,"Crustacea","Decapoda","Sesarmidae","Neosarmatium","Neosarmatium trispinosum","Inter_F",NA,1,NA,1,NA,NA,NA,NA,NA,NA,1,NA,NA,NA,1,NA,NA,0
"579",13,"Australia","Indo West Pacific","Australia","Meso","Moreton Bay",153.25,-27.25,"Mollusca","Bivalvia","Teredinidae","Teredo","Teredo sp. 1","Inter_F",NA,NA,NA,NA,NA,NA,NA,NA,NA,1,NA,NA,1,NA,NA,NA,NA,0
"580",13,"Australia","Indo West Pacific","Australia","Meso","Moreton Bay",153.25,-27.25,"Crustacea","Decapoda","Callianassidae","Trypaea","Trypaea australiensis","Sub",NA,NA,NA,NA,1,NA,NA,NA,NA,NA,1,NA,NA,NA,NA,NA,NA,0
"581",13,"Australia","Indo West Pacific","Australia","Meso","Moreton Bay",153.25,-27.25,"Crustacea","Decapoda","Grapsidae","Metopograpsus","Metopograpsus frontalis","Inter_F",NA,NA,NA,NA,NA,1,1,NA,NA,NA,NA,NA,NA,NA,NA,NA,NA,1
"582",13,"Australia","Indo West Pacific","Australia","Meso","Moreton Bay",153.25,-27.25,"Crustacea","Decapoda","Ocypodidae","Tubuca","Tubuca polita","Inter_M",NA,NA,1,NA,NA,NA,NA,NA,NA,NA,1,NA,NA,NA,NA,1,NA,0
"583",13,"Australia","Indo West Pacific","Australia","Meso","Moreton Bay",153.25,-27.25,"Crustacea","Decapoda","Ocypodidae","Tubuca","Tubuca longidigitum","Inter_M",NA,NA,1,NA,NA,NA,NA,NA,NA,NA,1,NA,NA,NA,NA,1,NA,0
"584",13,"Australia","Indo West Pacific","Australia","Meso","Moreton Bay",153.25,-27.25,"Crustacea","Decapoda","Ocypodidae","Tubuca","Tubuca coarctata","Inter_M",NA,NA,1,NA,NA,NA,NA,NA,NA,NA,1,NA,NA,NA,NA,1,NA,0
"585",13,"Australia","Indo West Pacific","Australia","Meso","Moreton Bay",153.25,-27.25,"Mollusca","Gastropoda","Onchidiidae","Paromoionchis","Paromoionchis daemelii","Inter_F",NA,NA,1,NA,NA,NA,NA,NA,NA,NA,NA,NA,NA,NA,NA,NA,NA,1
"586",13,"Australia","Indo West Pacific","Australia","Meso","Moreton Bay",153.25,-27.25,"Crustacea","Decapoda","Portunidae","Scylla","Scylla serrata","Sub",NA,NA,NA,NA,NA,NA,1,NA,NA,NA,1,NA,NA,NA,NA,NA,NA,0
"587",13,"Australia","Indo West Pacific","Australia","Meso","Moreton Bay",153.25,-27.25,"Crustacea","Decapoda","Varunidae","Pseudohelice","Pseudohelice subquadrata","Inter_F",NA,1,NA,1,NA,NA,NA,NA,NA,NA,1,NA,NA,NA,NA,NA,1,0
